{"type":"FeatureCollection","features":[{"type":"Feature","id":"eez_boundaries.108","geometry":{"type":"MultiLineString","coordinates":[[[108.10119444,21.47013889],[108.10044444,21.46713889],[108.09936111,21.46391667],[108.09763889,21.46097222],[108.09441667,21.45783333],[108.09411111,21.45641667],[108.09547222,21.45227778],[108.13472222,21.27555556],[108.20083333,21.20972222],[108.37916667,20.40138889],[107.92972222,19.95916667],[107.52777778,19.65916667],[107.35,19.42388889],[107.20083333,19.42388889],[107.18972222,19.26777778],[107.15944444,19.21527778],[107.15944444,18.71444444],[107.56666667,18.23027778],[107.62611111,18.11888889],[107.6525,18.07027778],[107.96666667,17.78333333]]]},"geometry_name":"the_geom","properties":{"line_id":1294,"line_name":"Vietnam - China","line_type":"Treaty","mrgid_sov1":2200,"mrgid_ter1":2200,"territory1":"Vietnam","sovereign1":"Vietnam","mrgid_ter2":8603,"territory2":"China","mrgid_sov2":8603,"sovereign2":"China","mrgid_eez1":8484,"eez1":"Vietnamese Exclusive Economic Zone","mrgid_eez2":8486,"eez2":"Chinese Exclusive Economic Zone","source1":"Agreement between the People’s Republic of China and the Socialist Republic of Viet Nam on the Delimitation of the Territorial Sea the Exclusive Economic Zone and Continental Shelf in Beibu Bav/Gulf of Tonkin which was signed by the Two Countries on...","url1":"https://www.marineregions.org/documents/bulletin56e.pdf","source2":"The Final map of the boundary agreement between the Kingdom of Saudi Arabia and Bahrain","url2":"https://www.marineregions.org/documents/I_30248_Arabic_English.pdf","source3":null,"url3":null,"origin":"Database","doc_date":"2000-12-25Z","mrgid_jreg":null,"joint_reg":null,"length_km":506.8}},{"type":"Feature","id":"eez_boundaries.137","geometry":{"type":"MultiLineString","coordinates":[[[105.82,6.09666667],[106.2,6.25],[106.31694444,6.25],[106.66046389,6.34996667],[109.28694444,6.8375],[109.64333333,6.30333333]]]},"geometry_name":"the_geom","properties":{"line_id":1330,"line_name":"Vietnam - Indonesia","line_type":"Treaty","mrgid_sov1":2200,"mrgid_ter1":2200,"territory1":"Vietnam","sovereign1":"Vietnam","mrgid_ter2":2127,"territory2":"Indonesia","mrgid_sov2":2127,"sovereign2":"Indonesia","mrgid_eez1":8484,"eez1":"Vietnamese Exclusive Economic Zone","mrgid_eez2":8492,"eez2":"Indonesian Exclusive Economic Zone","source1":"Agreement between the Government of the Socialist Republic of Vietnam and the Government of the Republic of Indonesia concerning the delimitation of the continental shelf boundary, 26 June 2003","url1":"https://www.marineregions.org/documents/bulletin67e.pdf","source2":null,"url2":null,"source3":null,"url3":null,"origin":"Database","doc_date":"2003-06-26Z","mrgid_jreg":null,"joint_reg":null,"length_km":464.31}},{"type":"Feature","id":"eez_boundaries.155","geometry":{"type":"MultiLineString","coordinates":[[[103.04166667,7.8],[102.20323728,8.78188206]]]},"geometry_name":"the_geom","properties":{"line_id":1352,"line_name":"Thailand - Vietnam","line_type":"Treaty","mrgid_sov1":2207,"mrgid_ter1":2207,"territory1":"Thailand","sovereign1":"Thailand","mrgid_ter2":2200,"territory2":"Vietnam","mrgid_sov2":2200,"sovereign2":"Vietnam","mrgid_eez1":8332,"eez1":"Thailand Exclusive Economic Zone","mrgid_eez2":8484,"eez2":"Vietnamese Exclusive Economic Zone","source1":"Agreement between the Government of the Kingdom of Thailand and the Government of the Socialist Republic of Viet Nam on the delimitation of the maritime boundary between the two countries in the Gulf of Thailand, 9 August 1997","url1":"https://www.marineregions.org/documents/THA-VNM1997MB.PDF","source2":null,"url2":null,"source3":null,"url3":null,"origin":"Database","doc_date":"1997-08-09Z","mrgid_jreg":null,"joint_reg":null,"length_km":142.56}},{"type":"Feature","id":"eez_boundaries.479","geometry":{"type":"MultiLineString","coordinates":[[[107.96666667,17.78333333],[108.46069018,17.46511897]]]},"geometry_name":"the_geom","properties":{"line_id":3803,"line_name":"Connection line Vietnam - China","line_type":"Connection line","mrgid_sov1":2200,"mrgid_ter1":2200,"territory1":"Vietnam","sovereign1":"Vietnam","mrgid_ter2":8603,"territory2":"China","mrgid_sov2":8603,"sovereign2":"China","mrgid_eez1":8484,"eez1":"Vietnamese Exclusive Economic Zone","mrgid_eez2":8486,"eez2":"Chinese Exclusive Economic Zone","source1":"Connection lines between treaties, baselines and median lines","url1":"https://www.marineregions.org/eezmethodology.php","source2":null,"url2":null,"source3":null,"url3":null,"origin":"Link","doc_date":"2011-05-17Z","mrgid_jreg":null,"joint_reg":null,"length_km":63.16}},{"type":"Feature","id":"eez_boundaries.497","geometry":{"type":"MultiLineString","coordinates":[[[103.04166667,7.8],[103.05300481,7.78971599]]]},"geometry_name":"the_geom","properties":{"line_id":3825,"line_name":"Connection line Thailand - Vietnam","line_type":"Connection line","mrgid_sov1":2207,"mrgid_ter1":2207,"territory1":"Thailand","sovereign1":"Thailand","mrgid_ter2":2200,"territory2":"Vietnam","mrgid_sov2":2200,"sovereign2":"Vietnam","mrgid_eez1":8332,"eez1":"Thailand Exclusive Economic Zone","mrgid_eez2":8484,"eez2":"Vietnamese Exclusive Economic Zone","source1":"Connection lines between treaties, baselines and median lines","url1":"https://www.marineregions.org/eezmethodology.php","source2":null,"url2":null,"source3":null,"url3":null,"origin":"Link","doc_date":"2011-05-17Z","mrgid_jreg":null,"joint_reg":null,"length_km":1.69}},{"type":"Feature","id":"eez_boundaries.501","geometry":{"type":"MultiLineString","coordinates":[[[102.20323728,8.78188206],[102.23733985,8.81355978]]]},"geometry_name":"the_geom","properties":{"line_id":3831,"line_name":"Connection line Vietnam - Cambodia","line_type":"Connection line","mrgid_sov1":2200,"mrgid_ter1":2200,"territory1":"Vietnam","sovereign1":"Vietnam","mrgid_ter2":2171,"territory2":"Cambodia","mrgid_sov2":2171,"sovereign2":"Cambodia","mrgid_eez1":8484,"eez1":"Vietnamese Exclusive Economic Zone","mrgid_eez2":8331,"eez2":"Cambodian Exclusive Economic Zone","source1":"Connection lines between treaties, baselines and median lines","url1":"https://www.marineregions.org/eezmethodology.php","source2":null,"url2":null,"source3":null,"url3":null,"origin":"Link","doc_date":"2011-05-17Z","mrgid_jreg":null,"joint_reg":null,"length_km":5.13}},{"type":"Feature","id":"eez_boundaries.561","geometry":{"type":"MultiLineString","coordinates":[[[108.10119444,21.47013889],[108.10170473,21.4972679]]]},"geometry_name":"the_geom","properties":{"line_id":3900,"line_name":"Connection line Vietnam - China","line_type":"Connection line","mrgid_sov1":2200,"mrgid_ter1":2200,"territory1":"Vietnam","sovereign1":"Vietnam","mrgid_ter2":8603,"territory2":"China","mrgid_sov2":8603,"sovereign2":"China","mrgid_eez1":8484,"eez1":"Vietnamese Exclusive Economic Zone","mrgid_eez2":8486,"eez2":"Chinese Exclusive Economic Zone","source1":"Connection lines between treaties, baselines and median lines","url1":"https://www.marineregions.org/eezmethodology.php","source2":null,"url2":null,"source3":null,"url3":null,"origin":"Link","doc_date":"2011-05-17Z","mrgid_jreg":null,"joint_reg":null,"length_km":3}},{"type":"Feature","id":"eez_boundaries.771","geometry":{"type":"MultiLineString","coordinates":[[[108.10170473,21.4972679],[108.10159087,21.49739711],[108.10147667,21.49752586],[108.10136214,21.49765416],[108.10124727,21.49778201],[108.10113207,21.4979094],[108.10101654,21.49803633],[108.10090068,21.49816281],[108.10078448,21.49828883],[108.10066795,21.49841439],[108.10055109,21.4985395],[108.1004339,21.49866416],[108.10031637,21.49878836],[108.10019851,21.4989121],[108.09878471,21.50038684],[108.09625907,21.50353115],[108.09615302,21.50366411],[108.09604742,21.50379741],[108.09594228,21.50393106],[108.0958376,21.50406505],[108.09573339,21.50419939],[108.09562963,21.50433407],[108.09552633,21.5044691],[108.09542349,21.50460447],[108.09532112,21.50474019],[108.0952192,21.50487626],[108.09511774,21.50501267],[108.09125988,21.51023645],[108.08997838,21.51119458],[108.08987888,21.5112695],[108.08981809,21.51127613],[108.08961589,21.51129889],[108.08941415,21.51132229],[108.08921287,21.51134635],[108.08602215,21.51173894],[108.08583174,21.51176308],[108.08568113,21.51178273],[108.08564161,21.51178774],[108.08549022,21.5118075],[108.08545149,21.5118124],[108.08529931,21.51183226],[108.08526137,21.51183707],[108.0851084,21.51185703],[108.08507125,21.51186173],[108.08491748,21.51188179],[108.08488112,21.51188639],[108.08472657,21.51190655],[108.084691,21.51191106],[108.08453566,21.51193132],[108.08450088,21.51193572],[108.08434475,21.51195608],[108.08431076,21.51196038],[108.08415384,21.51198085],[108.08412063,21.51198505],[108.08396293,21.51200561],[108.08393051,21.51200971],[108.08377201,21.51203037],[108.08374039,21.51203437],[108.0835811,21.51205514],[108.08355027,21.51205904],[108.08339019,21.5120799],[108.08336014,21.5120837],[108.08319928,21.51210466],[108.08317002,21.51210836],[108.08300837,21.51212943],[108.0829799,21.51213303],[108.08281745,21.51215419],[108.08278978,21.51215769],[108.08262654,21.51217896],[108.08259965,21.51218235],[108.08243563,21.51220372],[108.08240953,21.51220702],[108.08224472,21.51222848],[108.08221941,21.51223168],[108.08205381,21.51225325],[108.08202929,21.51225634],[108.0818629,21.51227801],[108.08183916,21.51228101],[108.08167198,21.51230278],[108.08164904,21.51230567],[108.08148107,21.51232754],[108.08145892,21.51233033],[108.08129016,21.5123523],[108.0812688,21.512355],[108.08109925,21.51237707],[108.08107868,21.51237966],[108.08090834,21.51240183],[108.08088855,21.51240432],[108.08071743,21.51242659],[108.08069843,21.51242899],[108.08052651,21.51245136],[108.08050831,21.51245365],[108.0803356,21.51247612],[108.08031819,21.51247831],[108.08014469,21.51250088],[108.08012806,21.51250298],[108.07995378,21.51252565],[108.07993794,21.51252764],[108.07976287,21.51255041],[108.07974782,21.51255231],[108.07957196,21.51257517],[108.0795577,21.51257697],[108.07938105,21.51259994],[108.07936757,21.51260163],[108.07917748,21.51262635],[108.0789878,21.5126518],[108.07879853,21.51267799],[108.07860967,21.51270491],[108.07842123,21.51273258],[108.0782332,21.51276098],[108.07763132,21.51285446],[108.07419727,21.51540874],[108.07401464,21.51554319],[108.07383204,21.51567624],[108.07364947,21.51580786],[108.07346694,21.51593808],[108.07328444,21.51606688],[108.07310197,21.51619427],[108.07291953,21.51632024],[108.07273712,21.5164448],[108.07255475,21.51656795],[108.07237241,21.51668969],[108.0721901,21.51681001],[108.07200783,21.51692892],[108.07182559,21.51704641],[108.07164338,21.5171625],[108.0714612,21.51727716],[108.07127905,21.51739042],[108.07109694,21.51750226],[108.07091486,21.51761269],[108.07073281,21.51772171],[108.0705508,21.51782931],[108.07036882,21.5179355],[108.07018687,21.51804028],[108.07000495,21.51814364],[108.06982306,21.51824559],[108.06964121,21.51834612],[108.06945939,21.51844525],[108.0692776,21.51854296],[108.06909585,21.51863925],[108.06891412,21.51873414],[108.06873243,21.51882761],[108.06855078,21.51891966],[108.06836915,21.51901031],[108.06818756,21.51909954],[108.068006,21.51918735],[108.06782447,21.51927376],[108.06764297,21.51935875],[108.06746151,21.51944232],[108.06728008,21.51952449],[108.06709868,21.51960524],[108.06691732,21.51968458],[108.06673598,21.5197625],[108.06655468,21.51983901],[108.06637341,21.51991411],[108.06619218,21.51998779],[108.06601097,21.52006006],[108.0658298,21.52013092],[108.06564866,21.52020036],[108.06546756,21.5202684],[108.06528648,21.52033501],[108.06510544,21.52040022],[108.06492444,21.52046401],[108.06474346,21.52052639],[108.06246084,21.52129546],[108.06229188,21.52135374],[108.06212354,21.52141316],[108.06208429,21.52142733],[108.06195536,21.52147286],[108.06191838,21.52148621],[108.06178718,21.52153255],[108.06175247,21.52154509],[108.061619,21.52159225],[108.06158656,21.52160397],[108.06145082,21.52165194],[108.06142064,21.52166285],[108.06128263,21.52171164],[108.06125473,21.52172173],[108.06111445,21.52177134],[108.06108882,21.52178061],[108.06094627,21.52183103],[108.0609229,21.52183949],[108.06077809,21.52189073],[108.06075699,21.52189837],[108.06060991,21.52195043],[108.06059108,21.52195725],[108.06044173,21.52201013],[108.06042516,21.52201613],[108.06027355,21.52206983],[108.06025925,21.52207501],[108.06010536,21.52212952],[108.06009334,21.52213389],[108.05993718,21.52218922],[108.05992742,21.52219276],[108.05988911,21.52220634],[108.05978386,21.52237466],[108.05964651,21.52259074],[108.05950866,21.52280404],[108.05906928,21.5234726],[108.0589364,21.52367843],[108.05880629,21.52388373],[108.05867892,21.52408849],[108.05855432,21.5242927],[108.05843247,21.52449638],[108.05831338,21.52469952],[108.05819705,21.52490212],[108.05808347,21.52510417],[108.05797265,21.52530569],[108.05786458,21.52550667],[108.05775927,21.52570712],[108.05765672,21.52590702],[108.05755692,21.52610638],[108.0574685,21.52628756],[108.05745963,21.52630525],[108.05737084,21.52648716],[108.05736235,21.52650412],[108.05727319,21.52668677],[108.05726506,21.52670299],[108.05717554,21.52688638],[108.05716777,21.52690187],[108.05707789,21.52708598],[108.05707048,21.52710074],[108.05698023,21.52728559],[108.05697319,21.52729961],[108.05688258,21.52748519],[108.05687591,21.52749848],[108.05678493,21.5276848],[108.05668594,21.52788176],[108.05658552,21.52807588],[108.05648367,21.52826717],[108.05638039,21.52845563],[108.05627568,21.52864125],[108.05616953,21.52882405],[108.05606196,21.529004],[108.05595296,21.52918113],[108.05584252,21.52935542],[108.05573065,21.52952687],[108.05561736,21.52969549],[108.05550263,21.52986128],[108.05538647,21.53002424],[108.05526888,21.53018436],[108.05514986,21.53034165],[108.0550294,21.5304961],[108.05490752,21.53064772],[108.05478421,21.53079651],[108.05465946,21.53094246],[108.05453329,21.53108558],[108.05450245,21.53111948],[108.05440676,21.53122802],[108.05437639,21.53126139],[108.05428024,21.53137045],[108.05425033,21.5314033],[108.05415372,21.53151288],[108.05412427,21.53154522],[108.0540272,21.53165532],[108.05399821,21.53168713],[108.05390067,21.53179775],[108.05387215,21.53182904],[108.05377415,21.53194018],[108.05374609,21.53197095],[108.05364763,21.53208262],[108.05362003,21.53211286],[108.05352111,21.53222505],[108.05349397,21.53225478],[108.05339459,21.53236748],[108.05336791,21.53239669],[108.05326806,21.53250992],[108.05324185,21.5325386],[108.05314154,21.53265235],[108.05311579,21.53268051],[108.05301502,21.53279478],[108.05298973,21.53282242],[108.0528885,21.53293722],[108.05286367,21.53296434],[108.05276197,21.53307965],[108.05273761,21.53310625],[108.05263545,21.53322208],[108.05261155,21.53324816],[108.05250893,21.53336451],[108.05248549,21.53339007],[108.05236011,21.53353223],[108.05223845,21.53367575],[108.05212051,21.53382062],[108.05200631,21.53396685],[108.05189583,21.53411444],[108.05178908,21.53426339],[108.05168605,21.53441369],[108.05158675,21.53456536],[108.05149118,21.53471838],[108.05139933,21.53487276],[108.05131122,21.5350285],[108.05122682,21.53518559],[108.05116228,21.53531237],[108.0511834,21.53581396],[108.05118709,21.53601915],[108.0511857,21.53622161],[108.05117924,21.53642135],[108.05116771,21.53661836],[108.05115111,21.53681265],[108.05112944,21.53700422],[108.0511027,21.53719306],[108.05107088,21.53737918],[108.051034,21.53756258],[108.05099204,21.53774325],[108.05094502,21.5379212],[108.05089292,21.53809643],[108.05083575,21.53826893],[108.05077351,21.53843871],[108.05070621,21.53860577],[108.05063382,21.5387701],[108.05055637,21.53893171],[108.05047385,21.5390906],[108.05038626,21.53924676],[108.05029359,21.5394002],[108.05020862,21.53953124],[108.05019651,21.53955126],[108.05011281,21.53968021],[108.05009942,21.53970233],[108.05001701,21.53982919],[108.05000233,21.53985339],[108.0499212,21.53997816],[108.04990525,21.54000445],[108.0498254,21.54012714],[108.04980816,21.54015551],[108.0497296,21.54027612],[108.04971107,21.54030657],[108.0496338,21.5404251],[108.04961397,21.54045764],[108.049538,21.54057408],[108.04951688,21.5406087],[108.0494422,21.54072306],[108.04941979,21.54075976],[108.0493464,21.54087204],[108.04932269,21.54091081],[108.04926499,21.54099902],[108.04923762,21.54101115],[108.04911504,21.54106994],[108.049057,21.54109567],[108.04893927,21.5411523],[108.04887638,21.54118019],[108.0487635,21.54123465],[108.04869576,21.54126471],[108.04858773,21.54131701],[108.04851514,21.54134923],[108.04841196,21.54139936],[108.04833453,21.54143375],[108.04815677,21.54152045],[108.04798544,21.54161203],[108.04782054,21.54170849],[108.04766206,21.54180984],[108.04751002,21.54191607],[108.0473644,21.54202719],[108.04722521,21.54214319],[108.04719346,21.5421721],[108.04708749,21.54226032],[108.04705473,21.54229017],[108.04694978,21.54237744],[108.04691601,21.54240823],[108.04681206,21.54249457],[108.04677729,21.5425263],[108.04667435,21.54261169],[108.04663856,21.54264437],[108.04649868,21.54276026],[108.04635456,21.54286819],[108.04620621,21.54296815],[108.04614171,21.54300704],[108.04605561,21.5430639],[108.04601951,21.54308519],[108.04590486,21.54315936],[108.0458975,21.54316361],[108.04577492,21.54324126],[108.04575445,21.54325546],[108.0456029,21.54334941],[108.045447,21.5434352],[108.04530102,21.5435059],[108.04528714,21.54351353],[108.04525843,21.54352744],[108.04523173,21.54353159],[108.04512235,21.54354285],[108.0450487,21.54355441],[108.0449374,21.54356585],[108.04486567,21.54357724],[108.04475245,21.54358886],[108.04468264,21.54360006],[108.0445675,21.54361186],[108.04449961,21.54362289],[108.04438256,21.54363486],[108.04431658,21.54364571],[108.04419761,21.54365786],[108.04413355,21.54366854],[108.04401266,21.54368086],[108.04395051,21.54369137],[108.04382771,21.54370385],[108.04376748,21.5437142],[108.04364276,21.54372685],[108.04358445,21.54373704],[108.04345781,21.54374984],[108.04340142,21.54375987],[108.04327286,21.54377283],[108.04321839,21.54378271],[108.0430879,21.54379582],[108.04303535,21.54380555],[108.04290295,21.54381881],[108.04285232,21.5438284],[108.04271799,21.54384179],[108.04266928,21.54385125],[108.04253303,21.54386477],[108.04248625,21.5438741],[108.04234807,21.54388774],[108.04230321,21.54389696],[108.04216311,21.54391071],[108.04198483,21.54394855],[108.0418153,21.54400586],[108.04174918,21.54403743],[108.04164937,21.54407116],[108.04158391,21.54410253],[108.04148343,21.54413647],[108.04141864,21.54416762],[108.0413175,21.54420178],[108.04125337,21.54423271],[108.04120149,21.54425023],[108.04115156,21.54426709],[108.0410881,21.54429781],[108.04098563,21.54433239],[108.04092284,21.5443629],[108.04081969,21.5443977],[108.04075757,21.54442799],[108.04065376,21.54446301],[108.0405923,21.54449309],[108.04042418,21.54454978],[108.0403446,21.54456553],[108.04025252,21.5445961],[108.0401779,21.54461067],[108.04008087,21.5446424],[108.04001121,21.54465583],[108.03990921,21.54468869],[108.03984452,21.544701],[108.03973754,21.54473497],[108.03967784,21.54474619],[108.03956587,21.54478123],[108.03951116,21.54479139],[108.03939419,21.54482748],[108.03934448,21.5448366],[108.03922251,21.54487372],[108.0391778,21.54488182],[108.03905083,21.54491995],[108.03901112,21.54492706],[108.03887914,21.54496616],[108.03884445,21.5449723],[108.03870745,21.54501237],[108.03867778,21.54501756],[108.03853576,21.54505856],[108.03851111,21.54506283],[108.03836406,21.54510475],[108.03834445,21.54510811],[108.03819236,21.54515092],[108.03817778,21.54515339],[108.03802066,21.54519709],[108.03801112,21.54519869],[108.03784895,21.54524325],[108.03784446,21.54524399],[108.03767779,21.54528925],[108.03767726,21.54528945],[108.03751102,21.54533406],[108.03750571,21.54533607],[108.03733381,21.54538167],[108.03715614,21.54541028],[108.03697268,21.54542189],[108.03690825,21.54542005],[108.03681082,21.54549701],[108.03667141,21.54558735],[108.03665782,21.54559816],[108.03652022,21.54568699],[108.03650481,21.54569932],[108.03636903,21.54578661],[108.03635182,21.5458005],[108.03621782,21.54588623],[108.03619882,21.54590169],[108.0360666,21.54598584],[108.03604584,21.5460029],[108.03591537,21.54608543],[108.03589286,21.54610413],[108.03576412,21.546185],[108.03573989,21.54620539],[108.03561285,21.54628456],[108.03558693,21.54630668],[108.03546155,21.54638409],[108.03543399,21.54640802],[108.03531021,21.54648359],[108.03528106,21.54650941],[108.03515883,21.54658305],[108.03512816,21.54661088],[108.03500739,21.54668245],[108.0349753,21.54671244],[108.03485586,21.54678177],[108.03482248,21.54681415],[108.03470421,21.54688099],[108.03466974,21.54691607],[108.03455237,21.54698004],[108.0345171,21.54701832],[108.03440024,21.54707882],[108.03436466,21.54712112],[108.03427705,21.54716304],[108.03421514,21.547148],[108.03406787,21.54713345]]]},"geometry_name":"the_geom","properties":{"line_id":3435,"line_name":"Vietnam - China","line_type":"Median line","mrgid_sov1":2200,"mrgid_ter1":2200,"territory1":"Vietnam","sovereign1":"Vietnam","mrgid_ter2":8603,"territory2":"China","mrgid_sov2":8603,"sovereign2":"China","mrgid_eez1":8484,"eez1":"Vietnamese Exclusive Economic Zone","mrgid_eez2":8486,"eez2":"Chinese Exclusive Economic Zone","source1":"VLIZ Median Line","url1":"https://www.marineregions.org/eezmethodology.php","source2":null,"url2":null,"source3":null,"url3":null,"origin":"Median","doc_date":"2012-01-25Z","mrgid_jreg":null,"joint_reg":null,"length_km":9.54}},{"type":"Feature","id":"eez_boundaries.811","geometry":{"type":"MultiLineString","coordinates":[[[105.81588113,6.04724018],[105.8105662,6.04420355],[105.80730051,6.04582817],[105.79643499,6.05120584],[105.78557374,6.05655369],[105.77471674,6.06187171],[105.76386399,6.06715991],[105.75301551,6.07241828],[105.74217128,6.07764683],[105.7313313,6.08284555],[105.72049559,6.08801445],[105.70966413,6.09315352],[105.69883692,6.09826276],[105.68801398,6.10334218],[105.67719529,6.10839178],[105.66638085,6.11341155],[105.65557068,6.11840149],[105.64476476,6.12336161],[105.63396309,6.12829191],[105.62316569,6.13319238],[105.61237254,6.13806302],[105.6070538,6.14044946],[105.60158186,6.14291634],[105.59814905,6.14445502],[105.59079132,6.14776873],[105.58918756,6.14848685],[105.58028364,6.15249288],[105.58000083,6.15262073],[105.57131941,6.15652269],[105.56920996,6.15747536],[105.56241321,6.16052713],[105.55841923,6.16232908],[105.55345051,6.16455776],[105.54762865,6.16718174],[105.54454581,6.1685631],[105.53683819,6.17203347],[105.53558467,6.17259457],[105.52667998,6.17659983],[105.52604769,6.17688561],[105.51771607,6.18062926],[105.51525691,6.18173961],[105.5088099,6.18463345],[105.50446627,6.18659268],[105.49984754,6.18866371],[105.49367578,6.19144468],[105.49094289,6.19266882],[105.48288543,6.19629574],[105.48198213,6.19669993],[105.47307664,6.20070441],[105.4720949,6.20114804],[105.46411306,6.20473344],[105.46130421,6.20600139],[105.45520692,6.2087374],[105.45051366,6.21085381],[105.44624493,6.21276728],[105.43972327,6.21570514],[105.43734033,6.21677216],[105.42893301,6.22055551],[105.42837995,6.2208029],[105.41947366,6.22480658],[105.41814246,6.22540799],[105.41051042,6.22883521],[105.40735187,6.23026069],[105.40160432,6.23283893],[105.39656142,6.23511244],[105.3926427,6.23686842],[105.38577112,6.2399631],[105.38373817,6.24087308],[105.37498096,6.24481278],[105.37477819,6.24490344],[105.36587107,6.24890631],[105.36419038,6.24966544],[105.35690819,6.25293454],[105.35339988,6.25451749],[105.34800213,6.25693801],[105.34260953,6.25936856],[105.3390409,6.26096711],[105.33181933,6.26421853],[105.33013643,6.26497155],[105.32117651,6.26900129],[105.32102922,6.26906787],[105.3122689,6.27300356],[105.31023866,6.27392037],[105.30330641,6.27703138],[105.29944826,6.27877175],[105.29440039,6.28103461],[105.288658,6.28362214],[105.28543957,6.28506332],[105.2778679,6.28847141],[105.27653516,6.28906753],[105.26757478,6.29309629],[105.26707777,6.29332092],[105.25866719,6.29709831],[105.2562873,6.29817276],[105.24970509,6.30112571],[105.245497,6.30302346],[105.24079912,6.3051287],[105.23470683,6.30787316],[105.23202422,6.30907397],[105.23183873,6.309157],[105.22391684,6.31272172],[105.2229344,6.31316099],[105.21397354,6.31718875],[105.21312668,6.31757141],[105.20506598,6.32119051],[105.20233631,6.32242258],[105.19610429,6.32521749],[105.1915461,6.3272726],[105.18719837,6.32922024],[105.18075604,6.3321216],[105.17823842,6.33324813],[105.16996615,6.33696944],[105.16933417,6.3372519],[105.16037283,6.34127863],[105.15148553,6.34529352],[105.14256322,6.34934583],[105.13371459,6.3533862],[105.1248313,6.35746408],[105.11602132,6.36152992],[105.10717706,6.36563338],[105.09840573,6.3697247],[105.08960048,6.37385373],[105.08086781,6.37797053],[105.07210157,6.38212514],[105.06340755,6.38626742],[105.05468032,6.39044761],[105.04602494,6.39461537],[105.03733671,6.39882114],[105.02871999,6.40301439],[105.02007076,6.40724573],[105.01845947,6.40803817],[105.01149268,6.41146446],[105.00288244,6.41572139],[104.994343,6.41996561],[104.98577175,6.42424812],[104.97727095,6.42851782],[104.96873869,6.43282591],[104.96027653,6.43712111],[104.95178325,6.44145478],[104.94335973,6.44577546],[104.93490542,6.45013472],[104.92652053,6.4544809],[104.9181052,6.45886574],[104.90975894,6.46323741],[104.90138258,6.46764785],[104.89307495,6.472045],[104.88473755,6.47648103],[104.87646856,6.48090368],[104.86817012,6.4853653],[104.85993975,6.48981345],[104.85168026,6.49430065],[104.84348851,6.4987743],[104.83526798,6.5032871],[104.82711486,6.50778625],[104.81893327,6.51232464],[104.81081877,6.51684929],[104.80267613,6.52141328],[104.79460024,6.52596343],[104.78649654,6.53055302],[104.77845927,6.53512867],[104.7703945,6.53974386],[104.76239584,6.54434501],[104.75437,6.5489858],[104.74640996,6.55361246],[104.73842305,6.55827886],[104.73050162,6.56293102],[104.72255363,6.56762302],[104.7146708,6.5723007],[104.70676173,6.5770183],[104.69891751,6.58172149],[104.69104736,6.5864647],[104.68324174,6.5911934],[104.6754105,6.59596222],[104.66764348,6.60071644],[104.65985114,6.60551087],[104.65212273,6.6102906],[104.64436929,6.61511064],[104.63667948,6.61991589],[104.58987328,6.64931581],[104.58242752,6.65401671],[104.57495686,6.65875758],[104.56754742,6.66348378],[104.56011335,6.66825006],[104.55274024,6.67300157],[104.54534277,6.67779326],[104.53800598,6.68257007],[104.53064511,6.68738718],[104.52334463,6.6921893],[104.51602035,6.69703182],[104.5087562,6.70185925],[104.5014685,6.7067272],[104.49424066,6.71157994],[104.48698954,6.7164733],[104.47979802,6.72135135],[104.47258348,6.72627014],[104.46542828,6.7311735],[104.45825031,6.73611771],[104.45113142,6.7410464],[104.06301713,7.01113182],[104.06247137,7.01151301],[104.05689361,7.01551052],[104.05088386,7.01983866],[104.04492162,7.02415349],[104.0406356,7.02727037],[104.03251443,7.03313728],[104.02437678,7.03897723],[104.01622265,7.04479022],[104.00805204,7.05057624],[103.99986495,7.05633529],[103.99166138,7.06206739],[103.98344132,7.06777252],[103.97520479,7.07345068],[103.96695177,7.07910188],[103.95868227,7.08472612],[103.95039629,7.09032339],[103.94209382,7.0958937],[103.93377488,7.10143704],[103.92543945,7.10695342],[103.91708755,7.11244284],[103.90871916,7.11790529],[103.90033429,7.12334078],[103.89193294,7.1287493],[103.8835151,7.13413086],[103.87508079,7.13948546],[103.86662999,7.14481309],[103.85816271,7.15011376],[103.84967895,7.15538746],[103.84117871,7.1606342],[103.83266199,7.16585398],[103.82412879,7.17104679],[103.8155791,7.17621264],[103.80701293,7.18135152],[103.79843029,7.18646344],[103.78983116,7.19154839],[103.78121554,7.19660639],[103.77258345,7.20163741],[103.76393488,7.20664148],[103.75526982,7.21161858],[103.74658828,7.21656871],[103.74380305,7.21814518],[103.73789954,7.22150706],[103.7366119,7.22223495],[103.72937724,7.22634965],[103.72921056,7.22644503],[103.72218427,7.23043617],[103.72052312,7.2313855],[103.71494805,7.2345483],[103.71183512,7.23632507],[103.7077558,7.23863638],[103.70314663,7.24126383],[103.70052019,7.24275007],[103.69445759,7.24620169],[103.69332866,7.24683971],[103.68609312,7.25095391],[103.68576857,7.25113958],[103.67889976,7.25504031],[103.67708082,7.25607956],[103.67166293,7.25915244],[103.66839252,7.26101863],[103.66447029,7.2632404],[103.65970373,7.2659569],[103.65723408,7.26735408],[103.65101439,7.27089427],[103.65004215,7.2714436],[103.64280574,7.2755573],[103.64232531,7.27583207],[103.63561199,7.27964358],[103.63363727,7.28077156],[103.62837455,7.28375571],[103.62494867,7.28571014],[103.62118152,7.28784354],[103.61625958,7.29064792],[103.6139447,7.29195723],[103.60756993,7.29558479],[103.60675238,7.29604662],[103.59951509,7.30015982],[103.5988808,7.3005225],[103.59232095,7.30424597],[103.59019245,7.30546149],[103.5850829,7.3083581],[103.58150355,7.31039958],[103.57788947,7.31244582],[103.57281416,7.31533687],[103.57065203,7.31655949],[103.56412422,7.32027326],[103.56345931,7.32064876],[103.55622115,7.32476146],[103.55543502,7.32521086],[103.54902662,7.3288475],[103.54674637,7.33014936],[103.54178795,7.33295962],[103.53805717,7.33508696],[103.53459413,7.33704721],[103.52936748,7.34002375],[103.52735607,7.34116088],[103.52067723,7.34495965],[103.52016296,7.34525002],[103.51292392,7.34936223],[103.51198797,7.34989714],[103.505729,7.35344814],[103.50329902,7.35483515],[103.49848971,7.35756025],[103.49460951,7.35977225],[103.49129549,7.36164772],[103.48591952,7.36470856],[103.48405681,7.36576137],[103.47722898,7.36964396],[103.47686329,7.36985039],[103.46962339,7.37396212],[103.46853964,7.37458134],[103.46242806,7.3780479],[103.45985039,7.37951885],[103.45518815,7.38216],[103.45116058,7.38445546],[103.44799353,7.38624733],[103.44247029,7.38939128],[103.44075422,7.39036098],[103.43377945,7.39432618],[103.4335603,7.39444986],[103.42631953,7.39856111],[103.42509004,7.39926344],[103.4191238,7.40264677],[103.41640048,7.40420046],[103.41188327,7.40675886],[103.40771038,7.40913658],[103.40468824,7.41084606],[103.39901978,7.4140719],[103.39744831,7.41495969],[103.39032864,7.41900631],[103.39025399,7.41904844],[103.38301235,7.42315922],[103.38163915,7.42394344],[103.37581621,7.42724474],[103.37294929,7.42887997],[103.36857505,7.43135682],[103.36425888,7.43381559],[103.36137962,7.43544388],[103.35556799,7.43875042],[103.35413906,7.4395575],[103.34694421,7.44364589],[103.34687665,7.44368452],[103.33970182,7.44775642],[103.33818697,7.44862134],[103.33250528,7.45184181],[103.32949682,7.45355737],[103.32526349,7.45595388],[103.3208061,7.4584925],[103.31806764,7.46004081],[103.31211491,7.46342683],[103.31082645,7.46415441],[103.30363096,7.46824221],[103.30342348,7.46836079],[103.29638793,7.47235273],[103.2947335,7.47329712],[103.28919098,7.47643798],[103.28604304,7.47823265],[103.28194856,7.48055003],[103.27735203,7.48316729],[103.2747523,7.48463682],[103.26866053,7.48810113],[103.26751048,7.4887504],[103.26031434,7.49283763],[103.25996902,7.49303494],[103.25307068,7.49694813],[103.25127874,7.49797077],[103.24587332,7.50103324],[103.24258797,7.50290581],[103.23863026,7.50514527],[103.23389666,7.50783995],[103.23143359,7.50923192],[103.22520486,7.5127733],[103.22419113,7.51334548],[103.21699435,7.51743213],[103.21651325,7.51770697],[103.20975006,7.52154262],[103.20782267,7.5226423],[103.20255228,7.52562759],[103.1991316,7.52757684],[103.19530858,7.5297396],[103.19043998,7.53251048],[103.18811149,7.5338261],[103.18174788,7.53744334],[103.18086839,7.53793964],[103.17367097,7.54202572],[103.17305618,7.54237685],[103.16642604,7.54613619],[103.16436529,7.54731169],[103.15922784,7.55022102],[103.15567392,7.55224573],[103.1519835,7.554333],[103.146982,7.55717888],[103.144786,7.55841937],[103.13828959,7.56211124],[103.13754225,7.56253287],[103.13034419,7.5666184],[103.12959779,7.56704459],[103.12309861,7.57072884],[103.1209066,7.57197892],[103.1159,7.57481352],[103.11221493,7.57691248],[103.10865501,7.57892548],[103.1035227,7.58184513],[103.10145709,7.5830117],[103.09482999,7.58677699],[103.09421269,7.58712518],[103.08701399,7.59121014],[103.08613809,7.59171017],[103.07976778,7.59532056],[103.07744659,7.59664401],[103.07256874,7.5994051],[103.06875462,7.60157707],[103.06005395,7.6064959],[103.05133706,7.6113882],[103.04260394,7.61625395],[103.03385459,7.62109315],[103.02508903,7.62590581],[103.01630723,7.63069193],[103.00750921,7.6354515],[103.00154933,7.6386518],[102.99869924,7.64019151],[102.99438572,7.64250454],[102.9898887,7.6449306],[102.98717597,7.64638321],[102.98107752,7.64966864],[102.98001312,7.65023782],[102.97280324,7.65411662],[102.97226658,7.65440708],[102.96563868,7.65796783],[102.96345667,7.65914718],[102.95842786,7.66184509],[102.95464612,7.66388625],[102.95126407,7.66569817],[102.94767937,7.66763029]]]},"geometry_name":"the_geom","properties":{"line_id":3484,"line_name":"Vietnam - Malaysia","line_type":"Median line","mrgid_sov1":2200,"mrgid_ter1":2200,"territory1":"Vietnam","sovereign1":"Vietnam","mrgid_ter2":2230,"territory2":"Malaysia","mrgid_sov2":2230,"sovereign2":"Malaysia","mrgid_eez1":8484,"eez1":"Vietnamese Exclusive Economic Zone","mrgid_eez2":8483,"eez2":"Malaysian Exclusive Economic Zone","source1":"VLIZ Median Line","url1":"https://www.marineregions.org/eezmethodology.php","source2":null,"url2":null,"source3":null,"url3":null,"origin":"Median","doc_date":"2002-02-25Z","mrgid_jreg":null,"joint_reg":null,"length_km":365.26}},{"type":"Feature","id":"eez_boundaries.874","geometry":{"type":"MultiLineString","coordinates":[[[104.44030286,10.42168113],[104.41681639,10.40157055],[104.41071626,10.40026199],[104.40530499,10.39956785],[104.39074092,10.39514556],[104.38915099,10.39134983],[104.38717225,10.37987897],[104.38354864,10.36879784],[104.38331813,10.36794514],[104.38313662,10.36718075],[104.38185512,10.36217741],[104.37912447,10.36192934],[104.37780511,10.36138751],[104.33886957,10.34272263],[104.33613907,10.34172212],[104.32739977,10.3381991],[104.32159736,10.33759227],[104.31461276,10.33669533],[104.30859386,10.33598607],[104.30058934,10.3349263],[104.2978257,10.3347498],[104.27473331,10.32661005],[104.24433701,10.3211911],[104.20212225,10.31780652],[104.19715442,10.31997337],[104.19574494,10.32577429],[104.19437735,10.33134496],[104.19283167,10.37223681],[104.19404654,10.40621673],[104.19204602,10.41004804],[104.18579196,10.42209159],[104.17525907,10.42827832],[104.15782743,10.43945617],[104.15035668,10.44588368],[104.13341333,10.46050863],[104.13338298,10.46051761],[104.11246433,10.4664253],[104.09128127,10.47280003],[104.08535579,10.47416179],[104.08302695,10.47504347],[104.07278289,10.47781296],[104.0691135,10.47854383],[104.05928842,10.48431495],[104.05245449,10.48760363],[104.04377787,10.49169349],[104.03155834,10.49653331],[104.03093367,10.49682954],[104.02085457,10.50149834],[104.01644127,10.50290226],[104.0084729,10.50595083],[104.00676232,10.50654426],[103.98064349,10.51166316],[103.97561525,10.51157396],[103.9668438,10.51217403],[103.94939509,10.51320864],[103.94603719,10.5129146],[103.94332726,10.51210989],[103.93008214,10.5086127],[103.913739,10.50411126],[103.9106962,10.50346399],[103.90073165,10.50116118],[103.89514169,10.49318232],[103.89314547,10.48938637],[103.89485734,10.47111176],[103.89536834,10.46428389],[103.89194555,10.446689],[103.89029007,10.43862468],[103.88287764,10.43096712],[103.86945619,10.41984903],[103.85051269,10.40909944],[103.84707774,10.40692201],[103.84629216,10.40657121],[103.83387509,10.40219113],[103.83303271,10.40173626],[103.82503579,10.39333043],[103.82310563,10.39149168],[103.8138169,10.38132232],[103.81094748,10.37811198],[103.80493417,10.3740991],[103.79908368,10.36999126],[103.79467825,10.36593966],[103.67516378,10.26347714],[103.62259338,10.23115392],[103.56234735,10.13916774],[103.56487946,10.11288196],[103.57258053,10.02121417],[103.57387933,10.00589615],[103.5008426,9.8461535],[103.40378631,9.80208734],[103.38355588,9.77580204],[103.34754167,9.74349373],[103.26466315,9.67089766],[103.23374621,9.6440686],[103.22354264,9.6353717],[103.11073917,9.53816164],[102.98814781,9.43391411],[102.98065205,9.42747083],[102.93584328,9.38926912],[102.90541524,9.36195381],[102.84370766,9.31180574],[102.23733985,8.81355978]],[[104.52001131,10.42062831],[104.51941785,10.41953818],[104.51958917,10.41700643],[104.51801506,10.41598113],[104.51739531,10.41547406],[104.51592004,10.41380368],[104.51453969,10.4132275],[104.51449848,10.41323397],[104.51239199,10.41099634],[104.51208103,10.4107746],[104.51210385,10.41032118],[104.51142225,10.40875201],[104.50760613,10.4064959],[104.50627415,10.40441582],[104.50611747,10.40282154],[104.5059052,10.40263933],[104.50475865,10.40205889],[104.50473196,10.40203236],[104.49908721,10.40336454]]]},"geometry_name":"the_geom","properties":{"line_id":3557,"line_name":"Vietnam - Cambodia","line_type":"Median line","mrgid_sov1":2200,"mrgid_ter1":2200,"territory1":"Vietnam","sovereign1":"Vietnam","mrgid_ter2":2171,"territory2":"Cambodia","mrgid_sov2":2171,"sovereign2":"Cambodia","mrgid_eez1":8484,"eez1":"Vietnamese Exclusive Economic Zone","mrgid_eez2":8331,"eez2":"Cambodian Exclusive Economic Zone","source1":"VLIZ Median Line","url1":"https://www.marineregions.org/eezmethodology.php","source2":null,"url2":null,"source3":null,"url3":null,"origin":"Median","doc_date":"2012-03-09Z","mrgid_jreg":null,"joint_reg":null,"length_km":351.4}},{"type":"Feature","id":"eez_boundaries.920","geometry":{"type":"MultiLineString","coordinates":[[[108.46069018,17.46511897],[108.52212057,17.42423338],[108.53671326,17.41434189],[108.55124041,17.40431567],[108.558363,17.39931127],[108.56581261,17.39438128],[108.58042728,17.38453345],[108.59497708,17.37455224],[108.60946202,17.36443761],[108.6238821,17.35418956],[108.63823733,17.34380805],[108.65252772,17.33329306],[108.66675327,17.32264457],[108.67757503,17.3144049],[108.79250342,17.24516211],[108.89580348,17.18474386],[108.9249557,17.17101554],[108.96327034,17.15213155],[109.00142669,17.13248072],[109.03942477,17.11206278],[109.0453392,17.10875164],[109.07763905,17.09268601],[109.10623669,17.07784697],[109.12526342,17.06776812],[109.15318138,17.05267579],[109.15375234,17.0524012],[109.19200679,17.03321024],[109.23011234,17.01329699],[109.26806899,16.99266119],[109.30024317,16.97448531],[109.30598376,16.97181983],[109.41083626,16.92107614],[109.53628742,16.86204289],[109.68619589,16.8064203],[109.80816444,16.76392938],[109.8591946,16.74940516],[109.86100476,16.74916629],[109.89488893,16.73918229],[109.89753982,16.7384012],[109.90922245,16.73514174],[109.94681436,16.72410834],[109.9551346,16.72179439],[109.96633702,16.71851896],[109.99570577,16.70946128],[110.04484463,16.69505699],[110.0945743,16.68122084],[110.14489435,16.66795281],[110.19580441,16.65525288],[110.24730404,16.643121],[110.29939284,16.63155711],[110.35207041,16.62056117],[110.40533631,16.61013309],[110.42784212,16.60601184],[110.75189534,16.54667143],[110.81197924,16.53498817],[110.87254889,16.5225364],[110.88425845,16.52000088],[110.93360464,16.50931573],[110.99514687,16.49532573],[111.05717593,16.48056597],[111.05974637,16.47992743],[111.11214449,16.46691096],[111.11969221,16.46503599],[111.18269607,16.44873535],[111.24618791,16.43166354],[111.30274127,16.41589144],[111.34138013,16.40481964],[111.72894475,16.28775157],[111.78324931,16.27047555],[111.84842255,16.24921789],[111.91407697,16.22728257],[111.98021299,16.20466903],[112.04683108,16.1813767],[112.11393169,16.15740498],[112.12214686,16.15440859],[112.55050364,15.99152397],[112.58262863,15.97930829]]]},"geometry_name":"the_geom","properties":{"line_id":3434,"line_name":"Vietnam - China","line_type":"Unsettled median line (land)","mrgid_sov1":2200,"mrgid_ter1":2200,"territory1":"Vietnam","sovereign1":"Vietnam","mrgid_ter2":8603,"territory2":"China","mrgid_sov2":8603,"sovereign2":"China","mrgid_eez1":8484,"eez1":"Vietnamese Exclusive Economic Zone","mrgid_eez2":8486,"eez2":"Chinese Exclusive Economic Zone","source1":"Permanent Mission of the People’s Republic of China, Notes Verbales CML/17/2009 and CML/18/2009, May 7, 2009","url1":"https://www.marineregions.org/documents/chn_2009re_mys_vnm_e.pdf","source2":null,"url2":null,"source3":null,"url3":null,"origin":"Median","doc_date":"2009-05-07Z","mrgid_jreg":null,"joint_reg":null,"length_km":473.1}},{"type":"Feature","id":"eez_boundaries.922","geometry":{"type":"MultiLineString","coordinates":[[[112.55050364,15.99152397],[112.59395763,15.67723992],[112.59401213,15.67677894],[112.59500482,15.66838228],[112.59605208,15.65952477],[112.59709945,15.65066719],[112.59814688,15.64180983],[112.59919443,15.63295225],[112.60024211,15.6240944],[112.60128986,15.61523681],[112.60233771,15.6063791],[112.60338564,15.59752153],[112.60443368,15.58866382],[112.6054818,15.57980622],[112.60653003,15.57094852],[112.60757834,15.56209093],[112.60862674,15.5532333],[112.60967528,15.54437536],[112.61072388,15.53551771],[112.61177259,15.52665989],[112.61282138,15.5178022],[112.61387028,15.50894441],[112.61491927,15.50008663],[112.61596834,15.49122894],[112.61701752,15.48237116],[112.6180668,15.47351326],[112.61911617,15.46465545],[112.62016564,15.45579758],[112.6212152,15.44693974],[112.62226486,15.43808184],[112.6233146,15.42922409],[112.62436447,15.42036597],[112.62541438,15.41150835],[112.62646441,15.40265047],[112.62751456,15.39379242],[112.6285648,15.38493442],[112.6296151,15.37607659],[112.63066553,15.36721853],[112.63171605,15.35836053],[112.63276666,15.34950256],[112.63381735,15.34064463],[112.63486814,15.33178674],[112.63591903,15.32292873],[112.63697003,15.31407056],[112.63802111,15.30521255],[112.63907229,15.29635447],[112.64012357,15.28749635],[112.64117493,15.27863837],[112.64222639,15.26978029],[112.64327792,15.26092238],[112.64432958,15.25206421],[112.64538136,15.24320586],[112.64643319,15.2343478],[112.64748513,15.22548958],[112.64853715,15.2166315],[112.64958929,15.20777328],[112.6506415,15.19891512],[112.65169381,15.19005696],[112.65274622,15.18119882],[112.65379871,15.17234067],[112.65485133,15.16348228],[112.65590403,15.15462401],[112.65695682,15.14576574],[112.6580097,15.1369075],[112.65906267,15.12804933],[112.66011575,15.11919093],[112.66116889,15.11033289],[112.66222216,15.10147453],[112.66327554,15.09261595],[112.66432898,15.08375771],[112.66538253,15.07489931],[112.66643617,15.06604097],[112.6674899,15.05718263],[112.66854373,15.0483242],[112.66959766,15.03946578],[112.67065164,15.03060762],[112.67170577,15.02174913],[112.6727607,15.01288458],[112.6737486,15.00407233],[112.67398742,15.00180242],[112.67426622,14.99958918],[112.67538168,14.99073517],[112.67650408,14.98126777],[112.67692824,14.97745129],[112.67741217,14.97364021],[112.67803173,14.96860407],[112.67908718,14.95973989],[112.68014205,14.95088133],[112.68119703,14.94202265],[112.68225209,14.93316408],[112.68330723,14.92430563],[112.68436247,14.91544702],[112.68541781,14.90658842],[112.68647324,14.89772987],[112.68752877,14.88887123],[112.68858437,14.88001279],[112.68964008,14.87115415],[112.69069591,14.86229538],[112.69175182,14.85343667],[112.69280781,14.84457805],[112.6938639,14.83571932],[112.69492008,14.82686069],[112.69597636,14.818002],[112.69703272,14.80914334],[112.69808918,14.8002847],[112.69914574,14.79142596],[112.70020241,14.78256704],[112.70125915,14.77370837],[112.70231599,14.76484962],[112.70337292,14.7559909],[112.70442996,14.74713203],[112.70548708,14.73827322],[112.70654428,14.72941456],[112.70760159,14.72055573],[112.70865902,14.71169666],[112.70971651,14.70283787],[112.7107741,14.69397901],[112.7118318,14.68512002],[112.71288957,14.67626118],[112.71394744,14.66740234],[112.71500539,14.6585435],[112.71606344,14.64968465],[112.7171216,14.64082566],[112.71817986,14.63196661],[112.7192382,14.62310769],[112.72029664,14.61424866],[112.72135516,14.6053897],[112.72241378,14.59653076],[112.7234725,14.5876717],[112.72453129,14.57881283],[112.72559019,14.56995379],[112.7266492,14.56109462],[112.7277083,14.55223552],[112.72876748,14.54337645],[112.72982674,14.53451751],[112.73088612,14.52565832],[112.73194558,14.51679923],[112.73300513,14.50794011],[112.73406477,14.49908113],[112.7351245,14.49022205],[112.73618436,14.48136272],[112.73724428,14.47250358],[112.73830431,14.46364438],[112.73936443,14.45478512],[112.74042463,14.445926],[112.74148493,14.43706683],[112.74254533,14.42820755],[112.74290745,14.42518245],[112.7436058,14.41934849],[112.74466638,14.41048927],[112.74572708,14.40162973],[112.74678784,14.39277059],[112.7478487,14.38391129],[112.74890966,14.37505194],[112.7499707,14.3661927],[112.75103183,14.35733342],[112.75209305,14.34847419],[112.75315437,14.33961493],[112.75421581,14.33075535],[112.75527733,14.32189599],[112.75634166,14.31301386],[112.75649241,14.31174522],[112.75679159,14.30920644],[112.75693989,14.30793726],[112.75752842,14.30285741],[112.75767423,14.30158799],[112.75781117,14.30038546],[112.75796344,14.29904821],[112.75810672,14.29777887],[112.75924408,14.28761371],[112.75938485,14.28634431],[112.75966406,14.28380385],[112.75980238,14.28253384],[112.76035099,14.27745052],[112.76048679,14.27618059],[112.76075597,14.27363981],[112.76088918,14.27237067],[112.76300453,14.25202335],[112.76313524,14.25075396],[112.76339445,14.24821219],[112.76352278,14.24694152],[112.76403153,14.24185425],[112.7641574,14.24058301],[112.76440673,14.23803959],[112.76453008,14.23676846],[112.76550799,14.2265875],[112.76562886,14.22531595],[112.76586826,14.22277123],[112.76598668,14.2214991],[112.76645564,14.2164074],[112.76657158,14.21513501],[112.76680102,14.21258933],[112.76691444,14.21131698],[112.7676963,14.20244804],[112.76847656,14.19359818],[112.76925694,14.18474809],[112.77003742,14.17589786],[112.77081797,14.16704783],[112.77159862,14.15819777],[112.77237937,14.14934764],[112.77316021,14.14049744],[112.77394112,14.13164751],[112.77472216,14.12279723],[112.77550328,14.11394694],[112.77628449,14.10509682],[112.77706576,14.09624688],[112.77784715,14.08739679],[112.77862865,14.0785463],[112.77941022,14.06969616],[112.78019187,14.06084617],[112.78097363,14.05199593],[112.78175549,14.04314553],[112.78253744,14.03429527],[112.78331946,14.02544514],[112.78410158,14.01659492],[112.78488381,14.00774458],[112.78566611,13.99889445],[112.78644851,13.99004416],[112.78723102,13.98119369],[112.78801359,13.97234347],[112.78879626,13.96349332],[112.78957903,13.95464302],[112.7903619,13.9457925],[112.79114486,13.93694214],[112.79192789,13.92809195],[112.79271102,13.91924167],[112.79349426,13.91039113],[112.79427758,13.90154074],[112.79506097,13.89269057],[112.79584447,13.8838402],[112.79662809,13.8749895],[112.79741178,13.86613913],[112.79819554,13.85728883],[112.79897942,13.84843838],[112.79976338,13.8395879],[112.80054743,13.83073753],[112.80133156,13.82188718],[112.80211582,13.81303649],[112.80290014,13.80418604],[112.80368455,13.79533571],[112.80446907,13.78648512],[112.80525367,13.7776346],[112.80603836,13.76878409],[112.80682313,13.75993372],[112.80760802,13.75108306],[112.808393,13.74223242],[112.80917805,13.73338188],[112.80996319,13.72453152],[112.81074843,13.71568094],[112.81153378,13.70683013],[112.81231919,13.69797972],[112.81310471,13.68912914],[112.81389033,13.68027835],[112.81467602,13.67142787],[112.8154618,13.66257728],[112.81624769,13.65372663],[112.81703367,13.64487591],[112.81768619,13.63600819],[112.81805364,13.63251516],[112.81855779,13.6271699],[112.81939212,13.61832406],[112.8201278,13.60946923],[112.8206334,13.60338381],[112.82083801,13.60061632],[112.82175141,13.59177188],[112.82253802,13.58292126],[112.82332473,13.57407041],[112.8241115,13.56521989],[112.82489839,13.55636913],[112.82568538,13.54751821],[112.82647245,13.53866746],[112.82725959,13.52981681],[112.82804683,13.52096612],[112.82883419,13.51211512],[112.82885257,13.51190852],[112.82962162,13.50326439],[112.83040913,13.49441369],[112.83119674,13.4855629],[112.83198446,13.4767119],[112.83277226,13.46786102],[112.83356013,13.4590103],[112.8343481,13.45015954],[112.83513619,13.4413084],[112.83524508,13.4400856],[112.83592434,13.43245764],[112.83671258,13.42360684],[112.83750091,13.41475608],[112.83828936,13.405905],[112.83861852,13.40221026],[112.84116278,13.38488939],[112.84150966,13.38249713],[112.84219495,13.3777088],[112.84253309,13.37531468],[112.84386865,13.36573068],[112.84419796,13.36333522],[112.84484791,13.35854184],[112.84516833,13.35614556],[112.84707909,13.34165204],[112.84731518,13.33984171],[112.84778258,13.33621848],[112.84801368,13.33440704],[112.8489285,13.32715615],[112.84915456,13.3253441],[112.84960174,13.32171842],[112.84982268,13.31990626],[112.85157161,13.30539315],[112.85178749,13.30358041],[112.85221444,13.29995238],[112.85242532,13.29813858],[112.8532592,13.29087833],[112.85346503,13.28906397],[112.85387174,13.28543371],[112.85407246,13.2836193],[112.85565943,13.26908833],[112.85585508,13.26727338],[112.85624154,13.26364101],[112.85643219,13.26182505],[112.85718507,13.2545563],[112.85737066,13.25273985],[112.85773687,13.24910545],[112.85791735,13.247289],[112.85934224,13.2327419],[112.85951765,13.23092497],[112.8598636,13.22728867],[112.86003399,13.22547078],[112.86070582,13.21819441],[112.86087115,13.21637607],[112.86119684,13.21273797],[112.86135707,13.21091969],[112.86261978,13.1963582],[112.86277494,13.19453949],[112.86308035,13.1908997],[112.86323049,13.1890801],[112.86382121,13.18179696],[112.86396628,13.17997696],[112.86425143,13.17633559],[112.86465042,13.17095653],[112.86529729,13.1617214],[112.86537337,13.16072978],[112.86544259,13.15981926],[112.86571693,13.15617715],[112.86578478,13.15526794],[112.86632345,13.14798117],[112.86654402,13.14489878],[112.86679612,13.14125536],[112.86708806,13.13681789],[112.86763043,13.12812454],[112.86798616,13.12195566],[112.86829828,13.11606065],[112.86833685,13.11532419],[112.86837455,13.11459678],[112.86893976,13.10709008],[112.86914377,13.10344346],[112.86924319,13.10162101],[112.87001899,13.08702672],[112.87011334,13.08520401],[112.87029707,13.08155635],[112.87038638,13.07973289],[112.87073364,13.07243466],[112.87081787,13.07061097],[112.87098131,13.06696238],[112.87106046,13.06513897],[112.87167388,13.05053722],[112.87174796,13.0487136],[112.87189111,13.04506419],[112.87196013,13.04323988],[112.87222622,13.03593835],[112.87229017,13.03411387],[112.87241303,13.03046374],[112.8724719,13.02863958],[112.87292295,13.01403211],[112.87297675,13.0122078],[112.87307933,13.00855706],[112.87312807,13.00673212],[112.87331298,12.99942816],[112.87335665,12.9976031],[112.87343894,12.99395186],[112.87347753,12.99212718],[112.87376623,12.97751572],[112.87379975,12.97569094],[112.87386176,12.9720393],[112.87389022,12.97021394],[112.87399398,12.9629084],[112.87401737,12.96108297],[112.87405909,12.95743105],[112.87407741,12.95560606],[112.8742038,12.9409923],[112.87421705,12.93916723],[112.8742385,12.93551506],[112.87424669,12.93368946],[112.87426931,12.92638308],[112.87427243,12.92455731],[112.87427359,12.92090477],[112.87427164,12.91907896],[112.87426789,12.91755022],[112.87428914,12.91072535],[112.87429229,12.90889955],[112.87429352,12.90524694],[112.8742916,12.90342164],[112.87428823,12.89740075],[112.87524019,12.88265031],[112.87535518,12.88082871],[112.87558022,12.87718323],[112.87569017,12.87536084],[112.87612011,12.86806674],[112.876225,12.86624406],[112.87642978,12.86259743],[112.87652958,12.86077496],[112.87730845,12.8461806],[112.87740318,12.84435788],[112.87758769,12.8407102],[112.87767739,12.83888673],[112.87802623,12.83158845],[112.87811086,12.82976475],[112.8782751,12.82611614],[112.87835464,12.82429271],[112.87897131,12.80969085],[112.87904579,12.80786722],[112.87918976,12.80421777],[112.87925919,12.80239345],[112.87952694,12.79509185],[112.8795913,12.79326735],[112.87971501,12.78961718],[112.87977429,12.78779301],[112.88022874,12.77318538],[112.88028296,12.77136106],[112.8803864,12.76771028],[112.88043557,12.76588532],[112.88062222,12.75858127],[112.88066633,12.75675618],[112.88074949,12.7531049],[112.88078852,12.7512802],[112.88108078,12.73666854],[112.88111475,12.73484373],[112.88117765,12.73119206],[112.88120656,12.72936667],[112.88131214,12.72206104],[112.88133598,12.72023559],[112.88137862,12.71658362],[112.8813974,12.71475861],[112.88152749,12.70014465],[112.88154121,12.69831959],[112.88156359,12.69466744],[112.88157225,12.69284185],[112.88159677,12.68553551],[112.88160036,12.6837099],[112.88160248,12.68005769],[112.88160101,12.67823257],[112.88156863,12.66346324],[112.88156712,12.66292488],[112.88156262,12.66153657],[112.88156,12.66084261],[112.8815473,12.65789615],[112.88154331,12.65705651],[112.88153961,12.65636205],[112.88153431,12.65546583],[112.88149675,12.64959898],[112.8814915,12.64882621],[112.88148319,12.647666],[112.88146753,12.64583928],[112.88143114,12.64218574],[112.88141041,12.64035942],[112.88133049,12.63408393],[112.88130865,12.63251581],[112.88126123,12.62937877],[112.88123566,12.62781089],[112.88107722,12.61875666],[112.88105647,12.61762606],[112.881013,12.61536366],[112.88099029,12.61423279],[112.88089555,12.60970692],[112.88087092,12.60857628],[112.88081968,12.60631441],[112.88079312,12.6051845],[112.88043714,12.59057404],[112.88039016,12.5887495],[112.88029108,12.58509856],[112.88023903,12.58327365],[112.8800206,12.57597036],[112.8799635,12.57414559],[112.8798442,12.57049523],[112.87978205,12.56867112],[112.87926424,12.5540653],[112.87919705,12.55224136],[112.87905754,12.54859168],[112.87898528,12.54676743],[112.87868598,12.53946689],[112.87860867,12.53764284],[112.87844895,12.53399395],[112.87836661,12.53217061],[112.87768709,12.51757115],[112.87759972,12.51574819],[112.87741983,12.51210053],[112.87732738,12.51027731],[112.87694731,12.50298101],[112.87684982,12.50115805],[112.87664974,12.4975114],[112.87654723,12.49568919],[112.87570625,12.48109909],[112.87558607,12.47906851],[112.87533932,12.47500575],[112.87521285,12.47297511],[112.87469418,12.46484914],[112.87456144,12.46281868],[112.87428961,12.45875705],[112.87422452,12.45780085],[112.87410051,12.45590411],[112.87400126,12.45441209],[112.87361096,12.44864333],[112.87351187,12.44720204],[112.87331046,12.44431889],[112.87320823,12.44287824],[112.87234348,12.43087679],[112.87223379,12.42937814],[112.87201086,12.42637944],[112.87189772,12.42488063],[112.8714381,12.41888262],[112.87132154,12.41738405],[112.87108496,12.41438636],[112.87096503,12.41288847],[112.86999106,12.40089509],[112.86986773,12.39939746],[112.86961752,12.39640084],[112.86949074,12.39490307],[112.86897654,12.38890933],[112.86884635,12.38741185],[112.8685825,12.38441636],[112.86844894,12.38291958],[112.86736586,12.37093523],[112.86722891,12.36943874],[112.86695144,12.36644443],[112.86681104,12.36494784],[112.86624232,12.35895886],[112.86609851,12.35746258],[112.86580742,12.35446952],[112.86566025,12.35297397],[112.86446819,12.34099961],[112.86431763,12.33950438],[112.86401293,12.33651263],[112.86385892,12.33501733],[112.86323575,12.32903358],[112.86307834,12.32753862],[112.86276004,12.32454825],[112.86259927,12.32305404],[112.86129836,12.31109063],[112.86113421,12.30959678],[112.86080232,12.30660783],[112.86063472,12.30511394],[112.85995717,12.2991359],[112.85978617,12.29764239],[112.85944069,12.29465493],[112.85926634,12.2931622],[112.8581465,12.28366755],[112.85785673,12.28121068],[112.857679,12.27971834],[112.85731996,12.27673242],[112.85713878,12.27524007],[112.85640692,12.26926822],[112.85622236,12.26777627],[112.85584973,12.26479196],[112.85566183,12.26330082],[112.85414365,12.25136217],[112.85395237,12.24987144],[112.85356621,12.2468888],[112.85337148,12.2453981],[112.85258538,12.23943292],[112.85238727,12.23794264],[112.85198755,12.23496173],[112.8517861,12.2334723],[112.85015952,12.22154747],[112.8499547,12.22005848],[112.84954146,12.21707935],[112.8493332,12.21559042],[112.84849295,12.20963238],[112.84828131,12.20814391],[112.84785452,12.20516663],[112.84763956,12.20367903],[112.84590474,12.19176896],[112.84568641,12.19028184],[112.84524613,12.18730646],[112.84502436,12.18581942],[112.84413003,12.179869],[112.84390489,12.17838245],[112.84345109,12.17540904],[112.84322262,12.17392339],[112.84137974,12.16202904],[112.84114792,12.1605439],[112.84068064,12.15757251],[112.84044538,12.15608747],[112.83949708,12.15014516],[112.83925845,12.14866064],[112.83877768,12.14569133],[112.83853574,12.14420775],[112.83658497,12.13233008],[112.83625115,12.13031687],[112.83557703,12.12628983],[112.83523695,12.12427736],[112.83386362,12.11622577],[112.83351737,12.11421447],[112.83281849,12.11019182],[112.83246613,12.10818211],[112.82962014,12.0920943],[112.82933673,12.09050343],[112.82876562,12.08732017],[112.82848868,12.08578698],[112.82732005,12.07936336],[112.82718071,12.0786],[112.82690099,12.07707257],[112.82646093,12.07469422],[112.82585744,12.0714655],[112.82555373,12.06985173],[112.82495718,12.06670336],[112.82480763,12.06591667],[112.82450748,12.06434304],[112.82435698,12.06355651],[112.82375378,12.06041489],[112.8235406,12.05930784],[112.82318422,12.05746281],[112.82297064,12.05636039],[112.82125648,12.04753816],[112.81992901,12.03900623],[112.81854655,12.03012028],[112.81716418,12.02123434],[112.8157819,12.01234844],[112.81439971,12.0034625],[112.81301761,11.99457659],[112.8116356,11.9856907],[112.81025368,11.97680481],[112.80887185,11.96791896],[112.80749011,11.95903307],[112.80610846,11.95014721],[112.80472689,11.94126137],[112.80334542,11.93237553],[112.80196404,11.92348971],[112.80058277,11.91460406],[112.79920157,11.90571827],[112.79782043,11.8968323],[112.79643941,11.88794651],[112.79505847,11.87906074],[112.79367763,11.87017498],[112.79229687,11.86128925],[112.7909162,11.85240348],[112.78953563,11.84351775],[112.78815514,11.83463203],[112.78677474,11.82574632],[112.78539444,11.81686062],[112.78401422,11.80797493],[112.78263441,11.79909129],[112.78203134,11.79528171],[112.78095393,11.78860162],[112.78075125,11.7872427],[112.78045955,11.7853066],[112.77910751,11.77642165],[112.77869843,11.77376946],[112.77786934,11.76846552],[112.77744971,11.7658162],[112.77708623,11.76355104],[112.77674566,11.76128199],[112.77649514,11.75962714],[112.77598938,11.75631452],[112.77573449,11.75465912],[112.77435519,11.74577538],[112.77297569,11.73688977],[112.77159627,11.72800417],[112.77021695,11.71911858],[112.76883772,11.71023303],[112.76745857,11.70134744],[112.76607951,11.69246188],[112.76470054,11.68357634],[112.76332167,11.6746908],[112.76194288,11.66580527],[112.76056418,11.65691976],[112.75918557,11.64803428],[112.75780704,11.63914876],[112.75642861,11.63026327],[112.75505027,11.6213778],[112.75367204,11.6124925],[112.75229388,11.60360707],[112.75091578,11.59472144],[112.74953779,11.58583601],[112.74815989,11.57695058],[112.74678208,11.56806517],[112.74540437,11.55917979],[112.74402673,11.55029438],[112.74264919,11.541409],[112.74127174,11.53252363],[112.73989438,11.52363827],[112.7385171,11.51475291],[112.73713992,11.50586758],[112.73576282,11.49698227],[112.73438581,11.48809693],[112.73300889,11.47921162],[112.73163206,11.47032632],[112.73025535,11.46144119],[112.7288787,11.45255594],[112.72750211,11.44367048],[112.72612564,11.43478523],[112.72474925,11.42589998],[112.72337295,11.41701474],[112.72199675,11.40812952],[112.72062063,11.3992443],[112.7192446,11.39035912],[112.71786866,11.3814739],[112.71649281,11.37258872],[112.71511704,11.36370354],[112.71374137,11.35481838],[112.71236578,11.34593325],[112.71099028,11.33704808],[112.70961488,11.32816295],[112.70823956,11.31927783],[112.70686435,11.31039288],[112.70548921,11.3015078],[112.70411413,11.29262252],[112.70273916,11.28373744],[112.70136429,11.27485237],[112.6999895,11.26596731],[112.6986148,11.25708226],[112.69724019,11.24819722],[112.69586567,11.23931221],[112.69449123,11.23042717],[112.69311689,11.22154216],[112.69174263,11.21265717],[112.69036846,11.20377218],[112.68899439,11.19488722],[112.68762039,11.18600223],[112.68624649,11.17711728],[112.68487268,11.16823233],[112.68349897,11.15934756],[112.68212534,11.15046265],[112.68075176,11.14157755],[112.6793783,11.13269265],[112.67800493,11.12380776],[112.67663165,11.11492287],[112.67525845,11.106038],[112.67388535,11.09715314],[112.67251233,11.08826831],[112.6711394,11.07938344],[112.66976656,11.07049861],[112.6683938,11.06161379],[112.66702114,11.05272898],[112.66564856,11.0438442],[112.66427607,11.03495939],[112.66290367,11.02607461],[112.66153136,11.01718984],[112.66015916,11.00830524],[112.65878702,10.99942049],[112.65741495,10.99053559],[112.656043,10.98165089],[112.65467112,10.97276615],[112.65329934,10.96388144],[112.65192764,10.95499674],[112.65055604,10.94611206],[112.64918452,10.9372274],[112.64781309,10.92834272],[112.64644174,10.91945806],[112.64507049,10.91057342],[112.64369932,10.90168878],[112.64232825,10.89280418],[112.64095725,10.88391955],[112.63958635,10.87503494],[112.63821554,10.86615035],[112.63684484,10.85726593],[112.6354742,10.84838136],[112.63410362,10.83949664],[112.63273317,10.83061211],[112.63136279,10.82172755],[112.6299925,10.81284302],[112.6286223,10.8039585],[112.62725219,10.79507399],[112.62588217,10.78618951],[112.62451223,10.777305],[112.62314239,10.76842053],[112.62177263,10.75953606],[112.62040296,10.7506516],[112.61903338,10.74176718],[112.61766388,10.73288272],[112.61629447,10.7239983],[112.61492515,10.71511388],[112.61355594,10.70622964],[112.6121868,10.69734525],[112.61081772,10.6884607],[112.60944875,10.67957635],[112.60807987,10.67069196],[112.60671108,10.66180761],[112.60534237,10.65292327],[112.60397375,10.64403894],[112.60260523,10.63515464],[112.60123678,10.62627031],[112.59986842,10.61738601],[112.59850016,10.60850172],[112.59713198,10.59961744],[112.59576388,10.59073317],[112.59439588,10.58184892],[112.59302797,10.57296469],[112.59166013,10.56408043],[112.59029242,10.55519637],[112.58892476,10.54631215],[112.58755717,10.53742778],[112.5861897,10.52854361],[112.5848223,10.5196594],[112.583455,10.51077523],[112.58208778,10.50189107],[112.58072065,10.49300691],[112.57924942,10.48413533],[112.57845992,10.47870041],[112.57795876,10.47524253],[112.57661979,10.46635452],[112.57521488,10.45747665],[112.57390652,10.44944415],[112.57380377,10.44860201],[112.57251971,10.43970221],[112.5711532,10.43081814],[112.56978677,10.42193409],[112.56842043,10.41305001],[112.5670542,10.40416612],[112.56568803,10.39528208],[112.56432192,10.38639789],[112.56295594,10.3775139],[112.56159003,10.36862987],[112.56022421,10.35974588],[112.55885848,10.35086189],[112.55749283,10.34197792],[112.55612728,10.33309397],[112.55476181,10.32421],[112.55339643,10.31532605],[112.55203113,10.30644212],[112.55066592,10.2975582],[112.5493008,10.28867429],[112.54793577,10.27979039],[112.54657083,10.27090652],[112.54520596,10.26202262],[112.54384122,10.25313891],[112.54247653,10.24425505],[112.54111191,10.23537104],[112.53974741,10.22648722],[112.53848926,10.2182954],[112.53838298,10.21760337],[112.53701864,10.20871956],[112.53565439,10.19983575],[112.53429023,10.19095195],[112.53292616,10.18206819],[112.53156217,10.17318439],[112.53019827,10.16430063],[112.52883445,10.15541687],[112.52747073,10.14653313],[112.52610709,10.1376494],[112.52474354,10.12876568],[112.52338007,10.11988199],[112.52201672,10.11099842],[112.52065342,10.10211473],[112.51929019,10.09323089],[112.51792708,10.08434722],[112.51656405,10.07546359],[112.5152011,10.06657991],[112.51383824,10.05769628],[112.51247547,10.04881265],[112.51111279,10.03992903],[112.50975019,10.03104543],[112.50838768,10.02216183],[112.50702526,10.01327827],[112.50566292,10.00439467],[112.50430067,9.99551111],[112.50293851,9.98662755],[112.50157644,9.97774401],[112.50021445,9.9688605],[112.49885257,9.95997712],[112.49749075,9.9510936],[112.496129,9.94220994],[112.49476736,9.93332645],[112.49340581,9.92444299],[112.49204433,9.9155595],[112.49068295,9.90667604],[112.48932166,9.89779259],[112.48796045,9.88890916],[112.48659933,9.88002573],[112.48523829,9.87114231],[112.48387735,9.86225893],[112.48251648,9.85337551],[112.4811557,9.84449213],[112.47979502,9.83560875],[112.47843441,9.82672539],[112.4770739,9.81784206],[112.47571349,9.80895886],[112.47435315,9.80007553],[112.47299287,9.79119204],[112.4716327,9.78230873],[112.47027262,9.77342545],[112.46891262,9.76454214],[112.46755271,9.75565886],[112.46619289,9.74677559],[112.46483315,9.73789234],[112.4634735,9.72900909],[112.46211393,9.72012585],[112.46075446,9.71124265],[112.45939506,9.70235941],[112.45803576,9.69347621],[112.45667654,9.68459301],[112.45531741,9.67570983],[112.45395837,9.66682668],[112.45259943,9.65794365],[112.45124056,9.6490605],[112.44988174,9.6401772],[112.44852304,9.63129407],[112.44716443,9.62241095],[112.4458059,9.61352784],[112.44444746,9.60464476],[112.44308911,9.59576165],[112.44173084,9.58687857],[112.44037265,9.5779955],[112.44001986,9.57568798],[112.43982334,9.57408734],[112.43960621,9.57233794],[112.43916693,9.56883657],[112.43894503,9.56708665],[112.43804771,9.56008434],[112.43782119,9.558335],[112.4373634,9.55483597],[112.43713231,9.5530877],[112.43526345,9.53909091],[112.43502776,9.53734325],[112.43455149,9.53384665],[112.43431111,9.53209913],[112.43333983,9.52510655],[112.43309484,9.52335967],[112.43260009,9.51986559],[112.43235054,9.51811983],[112.43033387,9.50414327],[112.43007972,9.50239816],[112.42956653,9.49890671],[112.4293077,9.49716179],[112.42826259,9.49017971],[112.42799915,9.48843547],[112.42746751,9.48494674],[112.42719953,9.48320367],[112.42503531,9.46924888],[112.42476274,9.46750652],[112.4242127,9.4640206],[112.42393545,9.46227847],[112.42281665,9.45530766],[112.4225348,9.45356627],[112.42196634,9.45008326],[112.42167996,9.44834308],[112.41936848,9.4344116],[112.41907753,9.43267217],[112.4184907,9.42919217],[112.41819507,9.42745303],[112.41700271,9.42049425],[112.41670249,9.41875589],[112.41609729,9.415279],[112.41579255,9.4135419],[112.4133341,9.39963526],[112.41320953,9.39893275],[112.4129593,9.39752598],[112.41283384,9.39682286],[112.41233003,9.39400796],[112.41223503,9.39347852],[112.41195043,9.39189788],[112.41182306,9.39119276],[112.41074451,9.38524055],[112.41055906,9.3842206],[112.41025322,9.38254331],[112.40992855,9.3807765],[112.40927441,9.37724353],[112.40894503,9.37547786],[112.40790156,9.36992554],[112.40763935,9.3685384],[112.40711185,9.36576391],[112.40684675,9.36437751],[112.40521303,9.35588229],[112.40500817,9.35482165],[112.40459652,9.35269955],[112.40438989,9.35163895],[112.40355949,9.34739492],[112.40335119,9.34633485],[112.40293275,9.34421447],[112.40272287,9.34315542],[112.39986898,9.32881513],[112.39951014,9.32702475],[112.39878717,9.323443],[112.39842334,9.32165311],[112.39695743,9.31449163],[112.39658871,9.31270272],[112.39584617,9.30912493],[112.39547266,9.30733752],[112.39246232,9.29302885],[112.39208395,9.29124244],[112.39132191,9.28766871],[112.39093855,9.28588284],[112.38939453,9.2787376],[112.38900629,9.27695277],[112.38822473,9.2733832],[112.38783173,9.27159992],[112.38466534,9.25732457],[112.38426748,9.25554235],[112.38346647,9.25197704],[112.38306364,9.25019542],[112.3814417,9.24306725],[112.38103401,9.24128672],[112.38021353,9.23772579],[112.37980108,9.23594685],[112.37647906,9.2217065],[112.37606178,9.21992867],[112.3752219,9.21637222],[112.37479964,9.21459504],[112.37310001,9.20748479],[112.37267291,9.20570876],[112.37181362,9.2021569],[112.36966652,9.19375536],[112.36909716,9.19134686],[112.36888571,9.19045511],[112.3682666,9.18785203],[112.36686011,9.18205362],[112.36662534,9.18110431],[112.36640516,9.18021662],[112.36464039,9.17312207],[112.36352594,9.16870618],[112.36261969,9.16516618],[112.36187345,9.162278],[112.35819054,9.14815392],[112.35775238,9.14652294],[112.35478869,9.13483392],[112.35385211,9.13130143],[112.35338167,9.12953678],[112.34959544,9.11541147],[112.34912021,9.11364809],[112.34816441,9.1101207],[112.34768423,9.10835813],[112.34575287,9.10130664],[112.34526789,9.09954538],[112.34429285,9.0960232],[112.3438032,9.09426373],[112.33986318,9.0801801],[112.33936875,9.07842195],[112.33837455,9.07490508],[112.33787519,9.0731478],[112.33586707,9.06611757],[112.33536292,9.06436163],[112.33434955,9.06085019],[112.33384074,9.0590961],[112.32974745,9.04505581],[112.32923388,9.0433031],[112.32820142,9.03979717],[112.32768293,9.03804538],[112.32559831,9.03103723],[112.32507505,9.02928684],[112.32402347,9.02578653],[112.32349558,9.02403804],[112.31924953,9.01004275],[112.3187169,9.00829568],[112.31764629,9.00480109],[112.31710875,9.003055],[112.3149479,8.99606975],[112.3144056,8.99432511],[112.31331595,8.99083636],[112.31276903,8.98909367],[112.30837077,8.97514501],[112.30781914,8.9734038],[112.30671053,8.96992097],[112.306154,8.96818078],[112.30391719,8.96121926],[112.30335592,8.95948058],[112.30222833,8.95600379],[112.30166247,8.9542671],[112.29711255,8.94036673],[112.29654199,8.93863157],[112.29539551,8.9351609],[112.29482006,8.93342682],[112.29250757,8.92648985],[112.2919274,8.92475733],[112.29076202,8.92129291],[112.29017729,8.91956243],[112.28547628,8.90571198],[112.28488687,8.90398308],[112.28370267,8.90052499],[112.28310838,8.89879722],[112.2807205,8.89188561],[112.28012151,8.89015945],[112.27891848,8.88670781],[112.27831494,8.88498374],[112.27346345,8.87118484],[112.27285525,8.8694624],[112.27163348,8.8660173],[112.27102041,8.86429604],[112.26855746,8.85741061],[112.26793971,8.85569102],[112.26669919,8.85225256],[112.26607692,8.85053511],[112.26107555,8.83678938],[112.26081751,8.8360814],[112.26029996,8.83466388],[112.26004086,8.83395546],[112.25900189,8.8311197],[112.25874189,8.83041129],[112.2581977,8.82893115],[112.25796023,8.82828645],[112.2558028,8.82243882],[112.25539868,8.82134543],[112.25463878,8.81929365],[112.25399668,8.81756743],[112.25271703,8.81414165],[112.252075,8.81242997],[112.25012428,8.80725074],[112.2496355,8.80595705],[112.24865501,8.80336997],[112.24816363,8.80207748],[112.24510436,8.79405525],[112.24472156,8.79305382],[112.24395393,8.79105047],[112.24356942,8.79004937],[112.24202734,8.78604403],[112.2416413,8.78504373],[112.24086742,8.78304321],[112.24048004,8.78204418],[112.23518079,8.76840963],[112.2345167,8.76670779],[112.23318317,8.76330406],[112.23251426,8.76160356],[112.22982793,8.7548015],[112.2291544,8.75310281],[112.22780234,8.74970634],[112.22712437,8.74800994],[112.22167717,8.73443338],[112.22099462,8.73273881],[112.21962414,8.72934967],[112.21893679,8.72765649],[112.21617666,8.72088383],[112.2154847,8.71919251],[112.21409579,8.71581082],[112.21339942,8.71412184],[112.20780494,8.70060488],[112.20673875,8.69804375],[112.20459502,8.69292407],[112.20351815,8.69036712],[112.19918766,8.68014369],[112.19810035,8.67759141],[112.19591459,8.67248996],[112.19481703,8.66994286],[112.1859872,8.64956651],[112.18487914,8.64702373],[112.18265128,8.64193999],[112.1815324,8.63940109],[112.17703354,8.62924929],[112.17590394,8.62671443],[112.17363365,8.621648],[112.17249339,8.6191174],[112.16628353,8.60541106],[112.16454038,8.60156641],[112.16419067,8.60079641],[112.16349219,8.59926098],[112.16314255,8.5984937],[112.16174378,8.5954291],[112.1613938,8.59466358],[112.16069268,8.59313257],[112.16034183,8.5923677],[112.15753121,8.58625038],[112.15717977,8.58548672],[112.15647555,8.583959],[112.15612306,8.58319557],[112.15471042,8.58014107],[112.15435703,8.57937821],[112.15364911,8.5778525],[112.15329498,8.57709053],[112.14872839,8.56728058],[112.14827357,8.56630554],[112.14736174,8.56435487],[112.14690517,8.56338017],[112.14507464,8.55948041],[112.14461648,8.55850636],[112.14369834,8.55655846],[112.14323874,8.55558541],[112.13955215,8.54779628],[112.13909096,8.54682385],[112.1381665,8.54487866],[112.13770362,8.5439067],[112.13584799,8.54001823],[112.13538348,8.53904686],[112.13445266,8.53710434],[112.13398658,8.53613368],[112.13233439,8.53269984],[112.13200253,8.53201112],[112.1313378,8.53063359],[112.13100514,8.5299452],[112.12967233,8.52719117],[112.12933891,8.52650323],[112.12867112,8.52512734],[112.12833702,8.52443996],[112.12565867,8.51893749],[112.12532384,8.5182506],[112.12465304,8.51687643],[112.12431734,8.51618973],[112.12297225,8.51344218],[112.12263584,8.512756],[112.12196205,8.51138364],[112.12162509,8.51069831],[112.11684679,8.50099357],[112.11644274,8.50017433],[112.11563288,8.49853507],[112.11522749,8.49771594],[112.11360265,8.4944383],[112.11319611,8.4936196],[112.11238168,8.49198233],[112.11197413,8.49116441],[112.10870603,8.48461664],[112.10829732,8.48379916],[112.10747836,8.48216387],[112.10706843,8.48134673],[112.1054256,8.47807748],[112.10501451,8.47726079],[112.104191,8.47562751],[112.1037788,8.47481138],[112.10205659,8.47140724],[112.10164355,8.47059218],[112.10081611,8.46896214],[112.10040194,8.46814763],[112.0987424,8.46488934],[112.09832719,8.46407549],[112.09749544,8.46244791],[112.09707923,8.46163485],[112.09374226,8.45512681],[112.09332502,8.45431441],[112.09248897,8.45268929],[112.0920705,8.45187724],[112.09039353,8.44862838],[112.08997402,8.44781699],[112.08913367,8.44619434],[112.08871328,8.44538396],[112.08372664,8.4357869],[112.083305,8.43497677],[112.08245995,8.43335577],[112.08203699,8.43254578],[112.08034181,8.42930477],[112.0799177,8.42849524],[112.07906813,8.42687632],[112.07864303,8.42606758],[112.07523443,8.41959346],[112.07480818,8.41878519],[112.07395413,8.41716836],[112.07352667,8.41636045],[112.07181371,8.41312822],[112.0713851,8.41232078],[112.07052654,8.41070605],[112.07009684,8.40989921],[112.06830042,8.40653163],[112.06786969,8.40572548],[112.06700687,8.4041133],[112.06657503,8.40330773],[112.06484477,8.40008526],[112.0644119,8.39928037],[112.06354481,8.39767074],[112.06311096,8.39686666],[112.05963275,8.39043065],[112.05919787,8.38962726],[112.05832655,8.38802018],[112.05789046,8.38721716],[112.05614298,8.38400449],[112.05570586,8.38320216],[112.05483029,8.38159766],[112.05439231,8.38079634],[112.04919898,8.37130981],[112.04875997,8.37050916],[112.04788017,8.36890718],[112.04743984,8.3681067],[112.04567517,8.36490381],[112.04523371,8.36410383],[112.04434944,8.36250401],[112.043907,8.36170484],[112.04035962,8.35530736],[112.03991605,8.35450868],[112.03902735,8.35291105],[112.03858257,8.35211275],[112.03680034,8.34891902],[112.03635442,8.34812122],[112.03546126,8.34652579],[112.03501427,8.3457286],[112.03314536,8.3424008],[112.03269713,8.34160395],[112.03179934,8.3400104],[112.03135002,8.33921414],[112.02954985,8.33602902],[112.02909952,8.33523348],[112.02819752,8.33364257],[112.02774622,8.33284785],[112.02412838,8.32648693],[112.02367608,8.32569292],[112.02276989,8.32410465],[112.02231638,8.32331104],[112.02049921,8.3201361],[112.02004469,8.31934321],[112.01913431,8.3177576],[112.01867895,8.31696574],[112.01328054,8.30759257],[112.01289719,8.30692783],[112.012129,8.3055975],[112.01174462,8.30493274],[112.01020447,8.30227256],[112.00981926,8.3016081],[112.00904787,8.30027925],[112.00870949,8.299697],[112.00545299,8.29410186],[112.00487465,8.29310957],[112.00461679,8.29266758],[112.0036056,8.2909359],[112.00314334,8.29014551],[112.00221919,8.28856782],[112.00175663,8.28777938],[112.00078344,8.28612327],[112.00012998,8.28501277],[111.99928277,8.2835751],[111.99869712,8.28258225],[111.99661121,8.27904939],[111.996143,8.27825763],[111.99521065,8.27668346],[111.99474407,8.2758969],[111.99287483,8.27275064],[111.99240724,8.27196482],[111.99147074,8.27039338],[111.99100221,8.26960841],[111.98724644,8.26332559],[111.98677692,8.26254135],[111.98583629,8.26097265],[111.98536558,8.26018883],[111.98347956,8.25705312],[111.98300784,8.25627004],[111.98206308,8.25470409],[111.98159055,8.25392206],[111.97598869,8.2446651],[111.97551561,8.24388453],[111.97456765,8.24232278],[111.97409326,8.24154244],[111.97219233,8.23842025],[111.97171682,8.23764044],[111.9707645,8.23608105],[111.97028807,8.2353021],[111.96646856,8.22906676],[111.96599102,8.22828835],[111.96503436,8.22673133],[111.96455563,8.22595336],[111.96263757,8.22284106],[111.96215773,8.22206363],[111.96119672,8.220509],[111.96071583,8.21973223],[111.95870761,8.21649332],[111.95822504,8.21571619],[111.95725856,8.21416215],[111.95677493,8.21338566],[111.95483749,8.21027976],[111.95435287,8.20950403],[111.95338231,8.20795281],[111.95289676,8.20717796],[111.94900481,8.20097622],[111.94851829,8.20020212],[111.94754366,8.19865373],[111.94705595,8.19788007],[111.94510197,8.19478508],[111.94461327,8.19401219],[111.94363457,8.19246664],[111.94314509,8.19169481],[111.93734139,8.18255693],[111.9369981,8.18201696],[111.9363102,8.18093613],[111.93596609,8.18039602],[111.93458747,8.17823441],[111.93424274,8.17769446],[111.93355259,8.1766146],[111.93320744,8.17607513],[111.9304412,8.1717559],[111.93009548,8.17121665],[111.92940315,8.1701379],[111.92905682,8.16959883],[111.92766974,8.16744205],[111.92732288,8.16690327],[111.92662845,8.16582576],[111.92628112,8.16528738],[111.92412334,8.16194627],[111.92355962,8.16107436],[111.92261894,8.15962105],[111.92205425,8.1587496],[111.92035808,8.15613494],[111.91979279,8.15526454],[111.91884974,8.15381407],[111.91828445,8.1529456],[111.91019953,8.14053784],[111.90873771,8.13830407],[111.90580412,8.13384065],[111.9043333,8.13161244],[111.89842975,8.12270725],[111.89695025,8.12048506],[111.89398165,8.11604532],[111.89249375,8.1138296],[111.88054548,8.09611179],[111.87904891,8.09390192],[111.87604537,8.0894857],[111.87453963,8.08728116],[111.86849603,8.07847019],[111.86698145,8.07627141],[111.86394277,8.07187868],[111.86241963,8.06968613],[111.85404643,8.05768342],[111.85299874,8.05618589],[111.85089816,8.05319203],[111.84984613,8.05169693],[111.84562762,8.045719],[111.84457154,8.04422675],[111.84245476,8.04124429],[111.84139492,8.03975531],[111.8328923,8.02784373],[111.83182847,8.0263576],[111.82969562,8.02338661],[111.82862747,8.02190296],[111.82434452,8.01597094],[111.82327235,8.01449018],[111.82112342,8.01153076],[111.82004753,8.01005331],[111.81141652,7.99823426],[111.81033668,7.99675971],[111.8081718,7.99381192],[111.80708766,7.9923399],[111.80274078,7.98645448],[111.80165266,7.98498539],[111.79947183,7.98204935],[111.79838002,7.98058361],[111.78962166,7.96885847],[111.78852592,7.96739567],[111.78632928,7.96447144],[111.78522928,7.96301121],[111.78081899,7.95717308],[111.77971504,7.95571583],[111.77750258,7.95280352],[111.77639498,7.95134965],[111.76751031,7.9397198],[111.76639881,7.93826892],[111.76417068,7.93536859],[111.76305494,7.93392032],[111.75858177,7.92813017],[111.75746212,7.92668493],[111.7552183,7.92379669],[111.75409504,7.92235487],[111.74508511,7.91082166],[111.74395799,7.90938287],[111.74169862,7.90650677],[111.74056729,7.90507064],[111.73603176,7.89932915],[111.73489656,7.89789608],[111.73262163,7.89503225],[111.73148285,7.89360264],[111.72234874,7.88216743],[111.72120613,7.8807409],[111.7189158,7.87788937],[111.71776901,7.87646555],[111.71317167,7.87077338],[111.71202103,7.86935266],[111.70971528,7.86651356],[111.70856111,7.86509635],[111.69930391,7.85376047],[111.69814595,7.85234636],[111.69582492,7.84951974],[111.69466281,7.84810839],[111.69000421,7.84246621],[111.68883828,7.841058],[111.68650197,7.83824398],[111.68533255,7.83683931],[111.67595337,7.82560409],[111.6754501,7.82500193],[111.6744416,7.82379667],[111.67393714,7.8231945],[111.67191605,7.8207848],[111.67141071,7.82018299],[111.67039904,7.81897964],[111.66989313,7.81837859],[111.66574307,7.81364239],[111.66546394,7.81330188],[111.66470745,7.81239538],[111.66435902,7.81197801],[111.66292249,7.810258],[111.66172708,7.8088287],[111.6594259,7.80608113],[111.65827413,7.80470781],[111.65612517,7.80214891],[111.65495041,7.80077266],[111.65411421,7.79979399],[111.65244043,7.79783691],[111.65159889,7.79686319],[111.64612691,7.79056472],[111.64544332,7.78977849],[111.6440748,7.7882057],[111.64334699,7.78737023],[111.6406202,7.78430471],[111.63992741,7.78352679],[111.63855587,7.78195971],[111.63785669,7.78118893],[111.62834625,7.77005625],[111.62714305,7.7686804],[111.62473162,7.76593047],[111.62352437,7.76455752],[111.61868533,7.75906925],[111.61747437,7.75769956],[111.61504808,7.75496272],[111.61383375,7.75359668],[111.60409534,7.74267127],[111.60287735,7.74130851],[111.60043635,7.73858479],[111.59921433,7.73722496],[111.59431629,7.73178929],[111.59309061,7.73043276],[111.5906349,7.72772229],[111.58940587,7.72636945],[111.57955002,7.71554989],[111.57831738,7.71420036],[111.5758471,7.71150317],[111.57461047,7.71015662],[111.569654,7.70477418],[111.56841374,7.70343097],[111.56592889,7.70074719],[111.56468533,7.69940771],[111.5547132,7.68869525],[111.55346605,7.68735912],[111.55096679,7.68468877],[111.54971569,7.68335566],[111.54470138,7.67802709],[111.54344668,7.67669736],[111.540933,7.67404057],[111.53967505,7.67271461],[111.52958782,7.66211051],[111.52832632,7.66078792],[111.52579837,7.65814474],[111.52453294,7.65682522],[111.51946139,7.65155113],[111.51819241,7.65023503],[111.51565019,7.64760556],[111.51437799,7.64629326],[111.50417685,7.63579876],[111.50290115,7.63448989],[111.5003448,7.63187417],[111.49906521,7.6305684],[111.49393701,7.62534941],[111.49265389,7.6240471],[111.49008343,7.62144525],[111.48879714,7.62014677],[111.47848331,7.6097631],[111.47719355,7.60846808],[111.47460912,7.60588014],[111.4733155,7.60458827],[111.46813127,7.59942499],[111.46683417,7.59813662],[111.46423577,7.59556269],[111.46293554,7.59427819],[111.45251023,7.58400656],[111.45120656,7.58272555],[111.44859435,7.58016568],[111.44728686,7.57888786],[111.4420472,7.5737809],[111.44073627,7.57250662],[111.43811025,7.56996091],[111.43679623,7.56869053],[111.42626067,7.55853214],[111.42494326,7.5572653],[111.42230357,7.5547338],[111.42098237,7.55347018],[111.41568791,7.54842013],[111.4143633,7.54716009],[111.41170996,7.54464291],[111.41038231,7.5433868],[111.39973774,7.53334284],[111.39840674,7.5320903],[111.39573989,7.52958747],[111.39440513,7.52833821],[111.38905648,7.52334566],[111.38771836,7.5221],[111.38503801,7.51961164],[111.38369688,7.51836995],[111.37294457,7.50844159],[111.37160013,7.5072035],[111.36890644,7.50472964],[111.36755828,7.50349487],[111.36215608,7.4985604],[111.36080459,7.49732928],[111.35809756,7.49487002],[111.35674311,7.49364289],[111.34588432,7.4838313],[111.3445266,7.48260781],[111.34180637,7.4801632],[111.34044497,7.47894307],[111.33498986,7.47406726],[111.33362517,7.47285081],[111.33089177,7.47042095],[111.32952416,7.46920853],[111.31856017,7.45951484],[111.31718934,7.4583061],[111.3144429,7.45589103],[111.31306842,7.45468567],[111.30756103,7.4498691],[111.30618331,7.44866747],[111.30342385,7.44626729],[111.30204325,7.44506972],[111.29097535,7.43549507],[111.28959156,7.43430121],[111.28681924,7.43191595],[111.28543184,7.43072553],[111.27987283,7.42596875],[111.27848222,7.42478207],[111.27569705,7.42241185],[111.27430361,7.42122927],[111.2631331,7.41177478],[111.26251772,7.41125455],[111.26128481,7.41021352],[111.26066821,7.40969352],[111.25819838,7.40761314],[111.25758095,7.4070937],[111.25634514,7.40605526],[111.25572725,7.4055367],[111.25077621,7.40138646],[111.250313,7.40099853],[111.24938557,7.4002225],[111.24902127,7.39991792],[111.24687977,7.39812935],[111.24540862,7.39690421],[111.24276498,7.39470902],[111.24143648,7.39360875],[111.23766037,7.39048945],[111.23671611,7.38971087],[111.23482567,7.38815499],[111.23388017,7.38737826],[111.22755941,7.38219528],[111.22676967,7.38154868],[111.22518834,7.38025597],[111.22439741,7.37961039],[111.22123,7.37702906],[111.22043826,7.37638482],[111.21885338,7.37509717],[111.21806123,7.37445458],[111.20668946,7.36524371],[111.20526778,7.36409534],[111.20241977,7.36180119],[111.2009946,7.36065636],[111.19528467,7.35608227],[111.19385642,7.35494129],[111.19099605,7.35266259],[111.1895651,7.3515258],[111.17809471,7.34243836],[111.17666073,7.34130542],[111.17378816,7.33904219],[111.17235073,7.33791282],[111.16659182,7.33340071],[111.16515135,7.33227523],[111.16226659,7.33002758],[111.16082347,7.32890631],[111.1492558,7.31994337],[111.1478097,7.31882599],[111.14491289,7.31659393],[111.14346338,7.31548017],[111.13765617,7.31103056],[111.13620366,7.30992072],[111.13329484,7.30770437],[111.13183972,7.30659877],[111.12017612,7.29776136],[111.11871806,7.29665967],[111.11579737,7.29445905],[111.11433594,7.29336102],[111.10848112,7.28897443],[111.10701673,7.28788035],[111.1040842,7.28569557],[111.10261725,7.28460576],[111.0908591,7.27589493],[111.08938925,7.27480906],[111.08644502,7.27264014],[111.08497183,7.27155796],[111.07907009,7.2672349],[111.077594,7.26615671],[111.07463809,7.26400375],[111.07315949,7.26292986],[111.06130816,7.25434662],[111.0598267,7.2532767],[111.05685927,7.25113972],[111.05537451,7.25007353],[111.04942653,7.24581451],[111.04793891,7.24475234],[111.04495998,7.24263145],[111.04346989,7.24157361],[111.03152678,7.23311895],[111.03003388,7.23206511],[111.0270436,7.22996033],[111.02554744,7.22891025],[111.01955393,7.22471576],[111.01805494,7.22366973],[111.01505334,7.22158117],[111.01355194,7.22053948],[111.00151845,7.21221441],[111.00001428,7.21117676],[110.9970015,7.20910442],[110.99549412,7.20807058],[110.98945577,7.20394112],[110.98794561,7.20291135],[110.98492168,7.20085535],[110.98340915,7.19982995],[110.97128668,7.19163543],[110.96977142,7.1906141],[110.96673649,7.18857445],[110.96521806,7.18755695],[110.95913559,7.183493],[110.95761442,7.18247961],[110.95456853,7.18045642],[110.95304504,7.17944743],[110.94083502,7.17138441],[110.93930885,7.17037952],[110.93625213,7.16837279],[110.93472283,7.16737177],[110.92859694,7.1633738],[110.92706495,7.16237691],[110.92399744,7.16038676],[110.92246318,7.1593943],[110.91016703,7.15146373],[110.90863013,7.15047539],[110.90555198,7.14850182],[110.90401199,7.14751739],[110.8978434,7.14358586],[110.89630076,7.1426056],[110.893212,7.14064872],[110.89166714,7.1396729],[110.87928631,7.1318757],[110.87773885,7.13090404],[110.87463963,7.12896385],[110.87308913,7.12799612],[110.86687856,7.1241315],[110.86532546,7.12316797],[110.86221581,7.12124459],[110.86066053,7.12028553],[110.84819646,7.11262261],[110.84663864,7.11166773],[110.8435187,7.10976116],[110.84195787,7.10881025],[110.83570606,7.10501299],[110.83414268,7.1040663],[110.8310125,7.10217665],[110.82944698,7.10123445],[110.81690114,7.09370672],[110.81533312,7.09276873],[110.81219284,7.090896],[110.81062186,7.08996201],[110.80432954,7.08623256],[110.80275605,7.08530282],[110.79960571,7.08344712],[110.79803014,7.0825219],[110.78540399,7.07513022],[110.78468772,7.07471147],[110.78325294,7.07387385],[110.78253549,7.0734556],[110.77966216,7.07178289],[110.77894397,7.07136538],[110.77750667,7.07053102],[110.77678816,7.07011451],[110.77103163,7.06678223],[110.77044739,7.06644441],[110.76927777,7.06576891],[110.76869295,7.06543154],[110.76617606,7.06398133],[110.76535334,7.06350785],[110.76388089,7.06266298],[110.76160045,7.06135833],[110.76045984,7.06070725],[110.75690736,7.05868402],[110.7560193,7.05817913],[110.75424194,7.05717043],[110.75335329,7.05666699],[110.74732158,7.05325584],[110.74656814,7.05283038],[110.7450599,7.05197995],[110.74430572,7.05155534],[110.74128625,7.0498579],[110.74053169,7.04943435],[110.73902162,7.04858799],[110.73826706,7.0481657],[110.72732831,7.04205296],[110.72664578,7.04167206],[110.7252788,7.04091023],[110.72459528,7.04052981],[110.72185806,7.03900847],[110.72117391,7.03862874],[110.7198048,7.03786987],[110.7191204,7.03749103],[110.71363751,7.03446023],[110.71295262,7.03408215],[110.71158165,7.03332638],[110.71089614,7.032949],[110.70815173,7.03144023],[110.70746586,7.03106368],[110.7060933,7.03031117],[110.70540734,7.02993561],[110.6975275,7.02562724],[110.68960961,7.02129806],[110.68169164,7.01696884],[110.67377368,7.01263961],[110.66585574,7.00831039],[110.65793775,7.00398114],[110.65001984,6.99965193],[110.64210202,6.99532276],[110.63418415,6.99099356],[110.6262663,6.98666436],[110.61834839,6.98233513],[110.61043057,6.97800594],[110.60251284,6.97367679],[110.5947272,6.96941987],[110.57084173,6.95636006],[110.56292401,6.9520309],[110.55500639,6.94770179],[110.54710972,6.94338412],[110.54538478,6.94244422],[110.54193109,6.94056887],[110.54020411,6.93963437],[110.53717843,6.93800063],[110.52914726,6.93357514],[110.52818905,6.93304815],[110.52627071,6.93199513],[110.52531137,6.93146955],[110.52147023,6.92936916],[110.52051005,6.92884513],[110.51858832,6.92779834],[110.51762757,6.92727601],[110.50973581,6.92299377],[110.50926548,6.92273895],[110.50632024,6.92110666],[110.50463266,6.92017452],[110.50125276,6.91831393],[110.49956202,6.91738634],[110.4916654,6.91306867],[110.4837478,6.90873952],[110.47583027,6.90441041],[110.46791283,6.90008134],[110.46000872,6.89575955],[110.4566516,6.89393628],[110.45035246,6.89053826],[110.44961515,6.89012949],[110.4481741,6.88933284],[110.44030086,6.88499279],[110.43834281,6.88391765],[110.43442211,6.88177328],[110.43246052,6.88070463],[110.42455392,6.87641416],[110.42299071,6.87556854],[110.42190736,6.87498434],[110.41586733,6.8716366],[110.4124774,6.8697704],[110.40457337,6.86544862],[110.39665595,6.86111951],[110.38873861,6.85679045],[110.38082136,6.85246142],[110.37290406,6.84813237],[110.36498664,6.84380324],[110.3570693,6.83947416],[110.34915218,6.83514519],[110.34123501,6.83081619],[110.3333178,6.82648715],[110.3254006,6.82215812],[110.31748341,6.8178291],[110.30956618,6.81350004],[110.30164903,6.80917102],[110.29373197,6.80484205],[110.28581485,6.80051304],[110.27789776,6.79618403],[110.26998061,6.791855],[110.26206354,6.787526],[110.25414657,6.78319705],[110.24622954,6.77886806],[110.23831253,6.77453908],[110.23039554,6.7702101],[110.22247849,6.76588109],[110.21456153,6.76155213],[110.20664466,6.7572232],[110.19872773,6.75289424],[110.19081083,6.74856529],[110.18289386,6.7442363],[110.17497699,6.73990735],[110.1670602,6.73557845],[110.15914337,6.73124951],[110.15122654,6.72692058],[110.14330974,6.72259165],[110.13539288,6.71826268],[110.12747611,6.71393376],[110.11955943,6.70960489],[110.11164269,6.70527598],[110.10372597,6.70094707],[110.0958092,6.69661813],[110.08789251,6.69228923],[110.07997592,6.68796037],[110.07205927,6.68363149],[110.06414263,6.6793026],[110.05622602,6.67497372],[110.04830935,6.67064481],[110.04039277,6.66631593],[110.03247627,6.6619871],[110.02455972,6.65765824],[110.01664319,6.65332938],[110.00872661,6.64900049],[110.00081011,6.64467164],[109.99289371,6.64034283],[109.98497724,6.63601399],[109.9770608,6.63168516],[109.96914437,6.62735633],[109.96122789,6.62302746],[109.9533115,6.61869864],[109.94539519,6.61436986],[109.93747883,6.61004104],[109.92956236,6.60571216],[109.92164597,6.60138332],[109.91372979,6.59705459],[109.90581357,6.59272583],[109.89789729,6.58839704],[109.88998104,6.58406825],[109.8820648,6.57973946],[109.87414851,6.57541065],[109.8662323,6.57108187],[109.85831618,6.56675314],[109.85040001,6.56242437],[109.84248386,6.55809561],[109.83456772,6.55376685],[109.82665154,6.54943806],[109.81873543,6.54510931],[109.81081942,6.54078061],[109.80290335,6.53645187],[109.7949873,6.53212313],[109.7870712,6.52779436],[109.77915518,6.52346564],[109.77123925,6.51913695],[109.76332327,6.51480823],[109.7554073,6.51047952],[109.74749135,6.50615081],[109.73957535,6.50182207],[109.73165944,6.49749337],[109.72374361,6.49316471],[109.71582773,6.48883602],[109.70791187,6.48450733],[109.69999595,6.48017861],[109.69208013,6.47584993],[109.68416439,6.4715213],[109.67624859,6.46719263],[109.66833281,6.46286396],[109.66041705,6.4585353],[109.65250124,6.45420661],[109.64458551,6.44987795],[109.63666988,6.44554934],[109.62875419,6.4412207],[109.62083851,6.43689206],[109.61292278,6.43256339],[109.60500714,6.42823476],[109.59709159,6.42390617],[109.58917598,6.41957755],[109.58126039,6.41524893],[109.57334482,6.41092032],[109.57203179,6.41020229]]]},"geometry_name":"the_geom","properties":{"line_id":4052,"line_name":"Vietnam 200 NM","line_type":"Unsettled (land)","mrgid_sov1":2200,"mrgid_ter1":2200,"territory1":"Vietnam","sovereign1":"Vietnam","mrgid_ter2":null,"territory2":null,"mrgid_sov2":null,"sovereign2":null,"mrgid_eez1":8484,"eez1":"Vietnamese Exclusive Economic Zone","mrgid_eez2":null,"eez2":null,"source1":"Letter dated 13 June 2016 from the Permanent Representative of Viet Nam to the United Nations addressed to the Secretary-General","url1":"https://www.marineregions.org/documents/N1617618.pdf","source2":null,"url2":null,"source3":null,"url3":null,"origin":"Buffer","doc_date":"2016-06-13Z","mrgid_jreg":null,"joint_reg":null,"length_km":1211.52}},{"type":"Feature","id":"eez_boundaries.1389","geometry":{"type":"MultiLineString","coordinates":[[[103.45,9.25],[104.87333333,8.38],[106.625,8.63],[106.67166667,8.64833333],[106.70166667,8.66166667],[109.08333333,9.96666667],[109.46666667,12.65],[109.45333333,12.89666667],[109.35,13.9],[109.15,15.385],[107.34690087,17.16314849],[107.34333333,17.16666667]]]},"geometry_name":"the_geom","properties":{"line_id":980,"line_name":"Vietnam Straight Baseline","line_type":"Straight baseline","mrgid_sov1":2200,"mrgid_ter1":2200,"territory1":"Vietnam","sovereign1":"Vietnam","mrgid_ter2":null,"territory2":null,"mrgid_sov2":null,"sovereign2":null,"mrgid_eez1":8484,"eez1":"Vietnamese Exclusive Economic Zone","mrgid_eez2":null,"eez2":null,"source1":"Statement of 12 November 1982 by the Government of the Socialist Republic of Viet Nam on the Territorial Sea Baseline of Viet Nam","url1":"https://www.marineregions.org/documents/VNM_1982_Statement.pdf","source2":"Straight Baselines Vietnam","url2":"https://www.marineregions.org/documents/ls99.jpg","source3":null,"url3":null,"origin":"Database","doc_date":"1982-10-12Z","mrgid_jreg":null,"joint_reg":null,"length_km":1566.91}},{"type":"Feature","id":"eez_boundaries.1916","geometry":{"type":"MultiLineString","coordinates":[[[107.145,16.96111111],[107.34690087,17.16314849],[107.96666667,17.78333333]]]},"geometry_name":"the_geom","properties":{"line_id":2036,"line_name":"Vietnam Straight Baseline","line_type":"Straight baseline","mrgid_sov1":2200,"mrgid_ter1":2200,"territory1":"Vietnam","sovereign1":"Vietnam","mrgid_ter2":null,"territory2":null,"mrgid_sov2":null,"sovereign2":null,"mrgid_eez1":8484,"eez1":"Vietnamese Exclusive Economic Zone","mrgid_eez2":null,"eez2":null,"source1":"Article I. 2. of the Agreement between the People's Republic of China and the Socialist  Republic  of  Viet  Nam  on  the  delimitation  of the  Territorial  Seas,  Exclusive  Economic  Zones  and Continental Shelves of the two countries in Beibu Gulf...","url1":"https://www.marineregions.org/documents/v2336.pdf","source2":null,"url2":null,"source3":null,"url3":null,"origin":"Database","doc_date":"2000-12-25Z","mrgid_jreg":null,"joint_reg":null,"length_km":126.12}}],"totalFeatures":14,"numberMatched":14,"numberReturned":14,"timeStamp":"2026-09-17T02:55:44.404Z","crs":{"type":"name","properties":{"name":"urn:ogc:def:crs:EPSG::4326"}}}